{"type":"Feature","properties":{"MUN":"WEST CAPE MAY BORO","COUNTY":"CAPE MAY","MUN_LABEL":"West Cape May Borough","MUN_TYPE":"Borough","NAME":"West Cape May Borough","GNIS_NAME":"Borough of West Cape May"},"geometry":{"type":"Polygon","coordinates":[[[-74.9258463,38.9438272],[-74.9211989,38.941315],[-74.9212089,38.9413143],[-74.9212574,38.9413055],[-74.9213081,38.9412863],[-74.9213312,38.9412745],[-74.9213521,38.9412638],[-74.9214026,38.9412274],[-74.9214553,38.9411807],[-74.9214947,38.941134],[-74.9215165,38.9410839],[-74.9215361,38.9410391],[-74.921549,38.9409839],[-74.9215548,38.9408339],[-74.9215631,38.940746],[-74.921578,38.9406632],[-74.921591,38.9406252],[-74.9216081,38.9405984],[-74.921622,38.940583],[-74.9216452,38.9405636],[-74.9216807,38.940541],[-74.9217467,38.9405151],[-74.921822,38.9404886],[-74.9219131,38.9404711],[-74.9219737,38.9404597],[-74.9220107,38.9404558],[-74.922071,38.9404545],[-74.922156,38.9404574],[-74.9222678,38.9404602],[-74.9224302,38.9404585],[-74.9224717,38.9404557],[-74.9225093,38.9404497],[-74.9225442,38.9404373],[-74.9225736,38.9404237],[-74.9226071,38.9404081],[-74.9226297,38.9403968],[-74.922657,38.9403806],[-74.9226795,38.9403656],[-74.9227034,38.9403499],[-74.9227191,38.9403408],[-74.922735,38.9403339],[-74.9228024,38.9403065],[-74.9230038,38.9402322],[-74.9231066,38.940192],[-74.9231576,38.9401684],[-74.9231792,38.9401583],[-74.9232828,38.9401138],[-74.9233246,38.9400894],[-74.9233604,38.9400612],[-74.9233929,38.9400277],[-74.923417,38.9399936],[-74.9234451,38.9399386],[-74.9234775,38.9398792],[-74.9234981,38.9398379],[-74.9235197,38.9398078],[-74.9235489,38.9397802],[-74.9235848,38.9397591],[-74.9236533,38.9397314],[-74.9237613,38.9397042],[-74.9237679,38.9397025],[-74.9237863,38.9396985],[-74.9238072,38.9396952],[-74.9238348,38.9396925],[-74.9238625,38.9396917],[-74.9238943,38.9396929],[-74.9239253,38.9396961],[-74.9239434,38.9396972],[-74.9239546,38.9396979],[-74.9239856,38.9396978],[-74.924035,38.939694],[-74.9240526,38.9396894],[-74.9240702,38.9396828],[-74.9240952,38.9396676],[-74.9241127,38.9396512],[-74.924131,38.9396335],[-74.9241468,38.9396112],[-74.9241633,38.9395726],[-74.9241815,38.9395332],[-74.9241848,38.9395219],[-74.9241931,38.9395011],[-74.924211,38.9394574],[-74.9242225,38.9394346],[-74.9242431,38.9394066],[-74.9242831,38.9393614],[-74.9243308,38.9393181],[-74.924374,38.9392747],[-74.9244126,38.9392234],[-74.9244268,38.9391974],[-74.9244394,38.9391556],[-74.9244467,38.9391277],[-74.9244524,38.9390929],[-74.9244685,38.9390511],[-74.9244795,38.9390267],[-74.9244972,38.9390057],[-74.9245254,38.9389917],[-74.9245655,38.9389857],[-74.9245863,38.9389915],[-74.9246116,38.9390053],[-74.9246341,38.9390331],[-74.924653,38.939084],[-74.9246651,38.93912],[-74.9246728,38.9391641],[-74.9246805,38.9392012],[-74.9246969,38.939222],[-74.9247268,38.9392463],[-74.9247655,38.9392624],[-74.9248072,38.9392738],[-74.9248548,38.9392771],[-74.924913,38.9392715],[-74.924929,38.9392699],[-74.924981,38.9392604],[-74.9250255,38.9392487],[-74.9250803,38.9392183],[-74.925138,38.9391786],[-74.9251823,38.9391309],[-74.9252,38.9390995],[-74.9252072,38.9390716],[-74.925207,38.939031],[-74.9252054,38.9390089],[-74.9251933,38.9389788],[-74.9251522,38.9389407],[-74.9251134,38.9389106],[-74.9250537,38.9388621],[-74.9250073,38.9388135],[-74.9249862,38.938773],[-74.9249846,38.9387405],[-74.9249902,38.9386871],[-74.9250143,38.9386232],[-74.9250643,38.9385394],[-74.9251289,38.9383941],[-74.9251521,38.9383035],[-74.9251694,38.9382175],[-74.9251785,38.9381177],[-74.9251781,38.9380457],[-74.9251955,38.93799],[-74.9252132,38.9379528],[-74.9252457,38.9379178],[-74.9253344,38.9378479],[-74.9254052,38.937764],[-74.9254493,38.937685],[-74.9254874,38.9375873],[-74.9255072,38.9375105],[-74.9255096,38.9374809],[-74.9255371,38.9373237],[-74.9255724,38.9371887],[-74.9256199,38.9370373],[-74.9256497,38.9369468],[-74.9256871,38.9368489],[-74.9257301,38.9367494],[-74.9257656,38.9366633],[-74.9257881,38.936601],[-74.9258067,38.9365431],[-74.9258215,38.9364719],[-74.9258315,38.9364156],[-74.9258351,38.9363725],[-74.925831,38.9363207],[-74.9258231,38.9362674],[-74.9258191,38.9362348],[-74.9258244,38.9361814],[-74.9258373,38.9361117],[-74.9258428,38.9360717],[-74.9258442,38.9360005],[-74.9258355,38.9359304],[-74.9258343,38.9359205],[-74.9258026,38.935776],[-74.9257992,38.9357606],[-74.9257072,38.9354482],[-74.9256387,38.9352646],[-74.9256021,38.9351818],[-74.9255868,38.9351596],[-74.9255467,38.9351079],[-74.9254892,38.9350251],[-74.9254529,38.9349704],[-74.9254182,38.934895],[-74.9253933,38.9348387],[-74.9253835,38.9347913],[-74.9253791,38.9346995],[-74.9253937,38.9345956],[-74.9254148,38.9344681],[-74.9254481,38.9343316],[-74.9254687,38.9342797],[-74.9255136,38.9341787],[-74.9255869,38.9340629],[-74.9256313,38.9339914],[-74.9306562,38.9351904],[-74.9313938,38.9327778],[-74.931484,38.932828],[-74.9315508,38.9328693],[-74.9316775,38.9329156],[-74.9318508,38.9329773],[-74.9320275,38.9330364],[-74.9323525,38.9331444],[-74.9327425,38.9332651],[-74.9331858,38.9333985],[-74.9336358,38.9335398],[-74.9337692,38.9335861],[-74.9337968,38.9335959],[-74.9339559,38.9336529],[-74.9340796,38.9336938],[-74.9340768,38.9336672],[-74.9340791,38.9335785],[-74.9341012,38.9334764],[-74.934129,38.9333876],[-74.9341794,38.9332811],[-74.9342386,38.9332055],[-74.9343064,38.9331476],[-74.93443,38.9330542],[-74.9344634,38.9330299],[-74.9344993,38.9329942],[-74.934523,38.9329529],[-74.9345227,38.9329061],[-74.9345178,38.9328781],[-74.9345105,38.9328469],[-74.934503,38.9327982],[-74.9345315,38.9327513],[-74.9345936,38.9327212],[-74.9346415,38.9326929],[-74.9347108,38.9326646],[-74.9347707,38.9326438],[-74.9348378,38.9326379],[-74.9349121,38.9326545],[-74.9349866,38.9326673],[-74.9350443,38.9326858],[-74.9350971,38.9327024],[-74.9351597,38.9327247],[-74.9352101,38.9327451],[-74.9352559,38.9327488],[-74.9353333,38.9332674],[-74.9357893,38.9363252],[-74.9357898,38.9363282],[-74.9365421,38.9365079],[-74.937027,38.9366239],[-74.9384315,38.9369598],[-74.9403365,38.9374146],[-74.9424236,38.937914],[-74.9424651,38.9379239],[-74.9444331,38.9383956],[-74.9457139,38.9387038],[-74.9462608,38.9388355],[-74.9484873,38.9393705],[-74.9504041,38.9398311],[-74.9519747,38.9402022],[-74.9519733,38.9404543],[-74.9519776,38.9407614],[-74.9519875,38.9485885],[-74.9443597,38.9507315],[-74.9435349,38.9502062],[-74.9423798,38.9486843],[-74.9387118,38.9475086],[-74.9376767,38.9496126],[-74.9349571,38.9487818],[-74.9347897,38.9487306],[-74.9340312,38.9484989],[-74.9339979,38.9484899],[-74.9339665,38.9484809],[-74.9339353,38.9484715],[-74.9339043,38.9484616],[-74.9338734,38.9484514],[-74.9338429,38.9484407],[-74.9338126,38.9484296],[-74.9337826,38.9484181],[-74.9337527,38.9484062],[-74.9337232,38.9483938],[-74.9336939,38.9483811],[-74.9336649,38.948368],[-74.9336363,38.9483545],[-74.9336079,38.9483406],[-74.9335799,38.9483263],[-74.933579,38.9483259],[-74.9326027,38.9477352],[-74.9307921,38.9466398],[-74.9307571,38.9466172],[-74.9307206,38.9465943],[-74.9306837,38.946572],[-74.9306461,38.9465501],[-74.9306081,38.9465288],[-74.9305696,38.9465079],[-74.9305307,38.9464877],[-74.9304913,38.9464679],[-74.9304514,38.9464487],[-74.9304112,38.94643],[-74.9303705,38.9464119],[-74.9303295,38.9463943],[-74.930288,38.9463773],[-74.9302463,38.9463609],[-74.930204,38.946345],[-74.9301615,38.9463297],[-74.9301187,38.946315],[-74.9300755,38.9463009],[-74.930032,38.9462874],[-74.9299882,38.9462745],[-74.9299444,38.9462622],[-74.9299376,38.9462604],[-74.9292358,38.9460877],[-74.9292091,38.9460824],[-74.9291846,38.9460771],[-74.9291602,38.9460716],[-74.9291359,38.9460657],[-74.9291118,38.9460595],[-74.9290878,38.9460529],[-74.9290639,38.946046],[-74.9290403,38.9460388],[-74.9290168,38.9460313],[-74.9289934,38.9460234],[-74.9289702,38.9460153],[-74.9289472,38.9460068],[-74.9289245,38.945998],[-74.9289019,38.9459889],[-74.9288795,38.9459795],[-74.9288573,38.9459698],[-74.9288354,38.9459598],[-74.9288137,38.9459495],[-74.9287922,38.9459389],[-74.9287709,38.945928],[-74.9287499,38.9459168],[-74.9287292,38.9459054],[-74.9287099,38.9458943],[-74.9279299,38.9454273],[-74.9269789,38.9443962],[-74.9258463,38.9438272]]]}}
