{"type":"FeatureCollection","name":"west_cape_may_road_centerlines","metadata":{"source":"NJOGIS NG911 Road Centerlines (Tran_road)","url":"https://services2.arcgis.com/XVOqAjTOJ5P6ngMu/arcgis/rest/services/Tran_road/FeatureServer/0","query_url":"https://services2.arcgis.com/XVOqAjTOJ5P6ngMu/arcgis/rest/services/Tran_road/FeatureServer/0/query","retrieved_at_utc":"2026-09-04T20:06:22.755161+00:00","source_last_edit_date":1785341586960,"out_sr":4326,"query_envelope_wgs84":[-74.9519875,38.9326379,-74.9211989,38.9507315],"spatial_relationship":"esriSpatialRelIntersects","boundary_file":"west_cape_may_boundary.geojson","boundary_sha256":"a7459627ec99c3e1f86e58cb414957c86fd93912fce7e0ddc5a5d3ce6013a584","fields":["OBJECTID","PRIMENAME","ELEVTYP_F","ELEVTYP_T"],"feature_count":268,"complete_objectid_inventory_verified":true,"municipal_clipping":"Envelope selection only; clip against the actual municipal boundary in the application."},"features":[{"type":"Feature","id":407,"properties":{"OBJECTID":407,"PRIMENAME":"Unnamed Segment","ELEVTYP_F":0,"ELEVTYP_T":0},"geometry":{"type":"LineString","coordinates":[[-74.9325767552071,38.9446410468651],[-74.9317583926709,38.9456236706157]]}},{"type":"Feature","id":1206,"properties":{"OBJECTID":1206,"PRIMENAME":"Ocean Street","ELEVTYP_F":0,"ELEVTYP_T":0},"geometry":{"type":"LineString","coordinates":[[-74.921260119016,38.9329238717832],[-74.9212615422029,38.9329267773606],[-74.9213755041823,38.93312656654],[-74.921499383205,38.9332970216751]]}},{"type":"Feature","id":1224,"properties":{"OBJECTID":1224,"PRIMENAME":"Broadway","ELEVTYP_F":0,"ELEVTYP_T":0},"geometry":{"type":"LineString","coordinates":[[-74.9303520270244,38.9372088155215],[-74.930298745545,38.9376124412779],[-74.9302861340497,38.9377079808668]]}},{"type":"Feature","id":1728,"properties":{"OBJECTID":1728,"PRIMENAME":"Ocean Street","ELEVTYP_F":0,"ELEVTYP_T":0},"geometry":{"type":"LineString","coordinates":[[-74.921499383205,38.9332970216751],[-74.9215059174334,38.9333060130937],[-74.9215960409541,38.9334300393137],[-74.921857918425,38.933792177395],[-74.9222405540976,38.9343486706433],[-74.922305946364,38.9344258675085],[-74.9223579973821,38.9344646148093]]}},{"type":"Feature","id":1992,"properties":{"OBJECTID":1992,"PRIMENAME":"5th Avenue","ELEVTYP_F":0,"ELEVTYP_T":0},"geometry":{"type":"LineString","coordinates":[[-74.9330857357734,38.940099701272],[-74.9329391611872,38.940025283677],[-74.9328957457392,38.9400104055856],[-74.9327941791619,38.9399755996662],[-74.9324303826153,38.9398940779105],[-74.9314644002492,38.939659120362],[-74.931355282375,38.9396328065688]]}},{"type":"Feature","id":2413,"properties":{"OBJECTID":2413,"PRIMENAME":"South Broadway","ELEVTYP_F":0,"ELEVTYP_T":0},"geometry":{"type":"LineString","coordinates":[[-74.9311640408705,38.933174734928],[-74.931058639084,38.9335224755154],[-74.9309955538782,38.9337289771481]]}},{"type":"Feature","id":3109,"properties":{"OBJECTID":3109,"PRIMENAME":"Stimpson Lane","ELEVTYP_F":0,"ELEVTYP_T":0},"geometry":{"type":"LineString","coordinates":[[-74.9325675438826,38.947769748385],[-74.9313369503451,38.9470230099617],[-74.9307323471019,38.9466604288596],[-74.9304692010977,38.9465109816564],[-74.9302801572067,38.9464221089633],[-74.9300994620756,38.946358742116],[-74.9299188243206,38.9463050122673],[-74.9297135930002,38.9462545581547],[-74.9293893967761,38.9461789495166],[-74.9291554712478,38.9461222020086],[-74.9289830827156,38.946071652873],[-74.9288228521468,38.9460082358521],[-74.9286749267277,38.9459383754493],[-74.9284733487085,38.9458111039824],[-74.9280250967343,38.945547141931],[-74.927895781369,38.9454670252627]]}},{"type":"Feature","id":4025,"properties":{"OBJECTID":4025,"PRIMENAME":"Myrtle Avenue","ELEVTYP_F":0,"ELEVTYP_T":0},"geometry":{"type":"LineString","coordinates":[[-74.9283522086296,38.9346897072429],[-74.928448226939,38.9347023156753],[-74.9285099605764,38.934713758944],[-74.9285649446016,38.934731185317],[-74.9287192801647,38.9347891328106],[-74.9293157872713,38.9350112220215],[-74.9305774863974,38.9355040425494]]}},{"type":"Feature","id":4260,"properties":{"OBJECTID":4260,"PRIMENAME":"Unnamed Segment","ELEVTYP_F":0,"ELEVTYP_T":0},"geometry":{"type":"LineString","coordinates":[[-74.929321782589,38.9432794477331],[-74.929395694783,38.9433179870862],[-74.9301103689885,38.943690629828],[-74.9302143710338,38.943744857214],[-74.9316551440658,38.9444960730928]]}},{"type":"Feature","id":5453,"properties":{"OBJECTID":5453,"PRIMENAME":"Broadway","ELEVTYP_F":0,"ELEVTYP_T":0},"geometry":{"type":"LineString","coordinates":[[-74.9302869165148,38.9408682932049],[-74.9303131773983,38.9411934156088],[-74.9303181334507,38.941321161316],[-74.9303145436709,38.9414194485719],[-74.9302982676314,38.9415013903781],[-74.9302735684259,38.9415800948778],[-74.9302321379869,38.941665451801],[-74.9301366753738,38.9418393966119],[-74.9299748343722,38.9421250125777],[-74.9299134036022,38.9422312972737]]}},{"type":"Feature","id":6779,"properties":{"OBJECTID":6779,"PRIMENAME":"Taylor Lane","ELEVTYP_F":0,"ELEVTYP_T":0},"geometry":{"type":"LineString","coordinates":[[-74.9260695923713,38.9499814888238],[-74.9280657200509,38.9503256270627]]}},{"type":"Feature","id":7532,"properties":{"OBJECTID":7532,"PRIMENAME":"4th Avenue","ELEVTYP_F":0,"ELEVTYP_T":0},"geometry":{"type":"LineString","coordinates":[[-74.937426215885,38.9402354449632],[-74.9372175218416,38.9401114546659],[-74.9372067224097,38.9401048503053]]}},{"type":"Feature","id":9221,"properties":{"OBJECTID":9221,"PRIMENAME":"Congress Street West","ELEVTYP_F":0,"ELEVTYP_T":0},"geometry":{"type":"LineString","coordinates":[[-74.9307854643432,38.9344154483093],[-74.9308722555108,38.9344484899083],[-74.9308822170001,38.9344510485454]]}},{"type":"Feature","id":9391,"properties":{"OBJECTID":9391,"PRIMENAME":"Fow Avenue","ELEVTYP_F":0,"ELEVTYP_T":0},"geometry":{"type":"LineString","coordinates":[[-74.9315509348177,38.934584786189],[-74.9314338955254,38.93496159339],[-74.9313367627331,38.9352642168139]]}},{"type":"Feature","id":9719,"properties":{"OBJECTID":9719,"PRIMENAME":"Windsor Avenue","ELEVTYP_F":0,"ELEVTYP_T":0},"geometry":{"type":"LineString","coordinates":[[-74.9309955538782,38.9337289771481],[-74.9293836817703,38.933350661929],[-74.9287198858964,38.9331904369678]]}},{"type":"Feature","id":30901,"properties":{"OBJECTID":30901,"PRIMENAME":"Broadway","ELEVTYP_F":0,"ELEVTYP_T":0},"geometry":{"type":"LineString","coordinates":[[-74.9305774863974,38.9355040425494],[-74.9305659122736,38.9356249027344]]}},{"type":"Feature","id":43997,"properties":{"OBJECTID":43997,"PRIMENAME":"Pacific Avenue","ELEVTYP_F":0,"ELEVTYP_T":0},"geometry":{"type":"LineString","coordinates":[[-74.9327233587381,38.9361387754266],[-74.9326657260643,38.9362991268045],[-74.9325312709355,38.9366384368708]]}},{"type":"Feature","id":45871,"properties":{"OBJECTID":45871,"PRIMENAME":"Eldredge Avenue","ELEVTYP_F":0,"ELEVTYP_T":0},"geometry":{"type":"LineString","coordinates":[[-74.9275356986235,38.9380746362257],[-74.9299455216663,38.9386626795314],[-74.9299996920519,38.9386787073547],[-74.9300581017684,38.9386980158158],[-74.9300998853039,38.9387238645653],[-74.9301504663579,38.9387567382929]]}},{"type":"Feature","id":46084,"properties":{"OBJECTID":46084,"PRIMENAME":"Myrtle Avenue","ELEVTYP_F":0,"ELEVTYP_T":0},"geometry":{"type":"LineString","coordinates":[[-74.9257944966018,38.9340303461973],[-74.925821509133,38.9340755749586],[-74.9258727488948,38.9341429082698],[-74.9259046909345,38.9341757419672],[-74.9259438861515,38.9342044033834],[-74.9260477719957,38.9342571017461],[-74.9261859262713,38.9343140405233],[-74.9262755360803,38.9343485580869],[-74.9263774590926,38.9343786929149],[-74.9265903752894,38.9344328870186],[-74.9268528976958,38.9344871461842],[-74.9271778384429,38.9345379638488],[-74.9276444378029,38.934614265344],[-74.9280318757535,38.9346746269939],[-74.9281568112357,38.9346904241102],[-74.9283522086296,38.9346897072429]]}},{"type":"Feature","id":47480,"properties":{"OBJECTID":47480,"PRIMENAME":"Moore Street","ELEVTYP_F":0,"ELEVTYP_T":0},"geometry":{"type":"LineString","coordinates":[[-74.9333939047161,38.9401338967673],[-74.9335529478015,38.9401599133164],[-74.9340790145014,38.9402829501698],[-74.9346256472392,38.9404283406154],[-74.9353325471159,38.9405923527226]]}},{"type":"Feature","id":48747,"properties":{"OBJECTID":48747,"PRIMENAME":"Stevens Street","ELEVTYP_F":0,"ELEVTYP_T":0},"geometry":{"type":"LineString","coordinates":[[-74.9519776310746,38.9407613849681],[-74.9519732566347,38.9404542786219],[-74.9519747125875,38.9402022981719],[-74.9519746865244,38.9402021901685]]}},{"type":"Feature","id":49745,"properties":{"OBJECTID":49745,"PRIMENAME":"Sunset Boulevard","ELEVTYP_F":0,"ELEVTYP_T":0},"geometry":{"type":"LineString","coordinates":[[-74.9306796260866,38.9351136511298],[-74.9306170876597,38.9350993219881]]}},{"type":"Feature","id":50166,"properties":{"OBJECTID":50166,"PRIMENAME":"Washington Street","ELEVTYP_F":0,"ELEVTYP_T":0},"geometry":{"type":"LineString","coordinates":[[-74.921499383205,38.9332970216751],[-74.9212784255967,38.9334036445913],[-74.921174476039,38.9334702219785],[-74.9210868136114,38.9335444024258],[-74.9210560226831,38.9335759088371],[-74.9209669183318,38.9336670803106],[-74.9208016668701,38.933848518713],[-74.9204581176247,38.9342114408961],[-74.9199169355732,38.9347864768501],[-74.9196914448228,38.9350318344963]]}},{"type":"Feature","id":50397,"properties":{"OBJECTID":50397,"PRIMENAME":"Park Boulevard","ELEVTYP_F":0,"ELEVTYP_T":0},"geometry":{"type":"LineString","coordinates":[[-74.9285586158073,38.9338547860163],[-74.9286216821567,38.933602951256],[-74.9287198858964,38.9331904369678]]}},{"type":"Feature","id":50833,"properties":{"OBJECTID":50833,"PRIMENAME":"Borough Hall Alley","ELEVTYP_F":0,"ELEVTYP_T":0},"geometry":{"type":"LineString","coordinates":[[-74.9319379943962,38.938146653794],[-74.9310731955024,38.9379303465936],[-74.9305855762502,38.9378183854224],[-74.9303771494725,38.937770388203],[-74.9303354439026,38.9377575532249],[-74.9303062001467,38.9377414057393],[-74.9302861340497,38.9377079808668]]}},{"type":"Feature","id":50876,"properties":{"OBJECTID":50876,"PRIMENAME":"Bayshore Road","ELEVTYP_F":0,"ELEVTYP_T":0},"geometry":{"type":"LineString","coordinates":[[-74.9399641183958,38.9449048407427],[-74.9399488201231,38.9449327685732],[-74.9399035238509,38.9450225090408],[-74.939843211012,38.9451630222665],[-74.9397340260569,38.9454350806115],[-74.9396247875247,38.9457042013137],[-74.9395117287017,38.9459583989913],[-74.9394249138175,38.9461408300773],[-74.9393190433085,38.946329292062],[-74.9392130987097,38.9465058375398],[-74.9390615614301,38.9467303040483],[-74.9389479314584,38.9469038855016],[-74.9388746647705,38.947022364824]]}},{"type":"Feature","id":51370,"properties":{"OBJECTID":51370,"PRIMENAME":"4th Avenue","ELEVTYP_F":0,"ELEVTYP_T":0},"geometry":{"type":"LineString","coordinates":[[-74.9337898497764,38.9391207703534],[-74.9333190171562,38.9390077700097],[-74.9317471590701,38.9386343645333]]}},{"type":"Feature","id":52136,"properties":{"OBJECTID":52136,"PRIMENAME":"Columbia Avenue","ELEVTYP_F":0,"ELEVTYP_T":0},"geometry":{"type":"LineString","coordinates":[[-74.9366335490548,38.9376215294041],[-74.9368300213828,38.9371233520921]]}},{"type":"Feature","id":53363,"properties":{"OBJECTID":53363,"PRIMENAME":"West Grant Street","ELEVTYP_F":0,"ELEVTYP_T":0},"geometry":{"type":"LineString","coordinates":[[-74.932737708479,38.9335943000381],[-74.932612644283,38.9335630493617],[-74.9322724534223,38.9334612572728],[-74.9320980802113,38.9334092920422],[-74.9319744022676,38.9333746852113],[-74.9319259016394,38.9333597075379]]}},{"type":"Feature","id":53430,"properties":{"OBJECTID":53430,"PRIMENAME":"Jackson Street","ELEVTYP_F":0,"ELEVTYP_T":0},"geometry":{"type":"LineString","coordinates":[[-74.9256811408597,38.9338773684104],[-74.9256286814617,38.9338469436184],[-74.9255481994678,38.9338158795475],[-74.9254531781541,38.9337934077653],[-74.9253144216123,38.9337825183036],[-74.9251035385502,38.9337621709727]]}},{"type":"Feature","id":54139,"properties":{"OBJECTID":54139,"PRIMENAME":"Congress Street","ELEVTYP_F":0,"ELEVTYP_T":0},"geometry":{"type":"LineString","coordinates":[[-74.9273328141789,38.9330860456473],[-74.9277888345529,38.9335563612323],[-74.9278628805121,38.9336335782236],[-74.927898235242,38.9336608792347],[-74.9279432188768,38.9336931979174],[-74.928004116964,38.9337179620887],[-74.92818988262,38.9337647566863],[-74.9284846050862,38.9338361106052],[-74.9285586158073,38.9338547860163]]}},{"type":"Feature","id":54240,"properties":{"OBJECTID":54240,"PRIMENAME":"Moore Street","ELEVTYP_F":0,"ELEVTYP_T":0},"geometry":{"type":"LineString","coordinates":[[-74.9330857357734,38.940099701272],[-74.9333804251274,38.940131695543],[-74.9333939047161,38.9401338967673]]}},{"type":"Feature","id":55314,"properties":{"OBJECTID":55314,"PRIMENAME":"Westwood Drive","ELEVTYP_F":0,"ELEVTYP_T":0},"geometry":{"type":"LineString","coordinates":[[-74.9358208712653,38.9478778677205],[-74.9359579402999,38.9479239856634],[-74.936447389572,38.9481510607456],[-74.9365041332574,38.948165590353],[-74.9365392625579,38.948143880479],[-74.9365846952266,38.9480428295431],[-74.9366461884775,38.9477367530034],[-74.9366255888895,38.9475898597414],[-74.9362719612396,38.9474234944761],[-74.9358761697172,38.9472595512793],[-74.9359409893006,38.946937893839],[-74.9350604352382,38.9468061743286],[-74.9340463191821,38.9466629795877],[-74.9339234568821,38.9466733819989]]}},{"type":"Feature","id":58598,"properties":{"OBJECTID":58598,"PRIMENAME":"Broad Street","ELEVTYP_F":0,"ELEVTYP_T":0},"geometry":{"type":"LineString","coordinates":[[-74.9233114026859,38.9351202227395],[-74.9231268632343,38.9352975047425],[-74.922744456782,38.935658450149],[-74.9224555098921,38.9359311752902],[-74.9222444755342,38.9361303618354],[-74.9216978564384,38.9366838433794],[-74.9216668395649,38.9367180857951],[-74.9216419578244,38.9367376993327],[-74.9216076471081,38.9367500147396],[-74.9216029767007,38.9367505946523]]}},{"type":"Feature","id":59396,"properties":{"OBJECTID":59396,"PRIMENAME":"Atlantic Avenue","ELEVTYP_F":0,"ELEVTYP_T":0},"geometry":{"type":"LineString","coordinates":[[-74.9333939047161,38.9401338967673],[-74.9334492047186,38.9399711917148],[-74.9335500006918,38.9396759673306],[-74.9335725830561,38.9396236987893]]}},{"type":"Feature","id":61434,"properties":{"OBJECTID":61434,"PRIMENAME":"Willow Avenue","ELEVTYP_F":0,"ELEVTYP_T":0},"geometry":{"type":"LineString","coordinates":[[-74.9279909592384,38.9422087208583],[-74.9286036303499,38.9411869915025]]}},{"type":"Feature","id":63331,"properties":{"OBJECTID":63331,"PRIMENAME":"6th Avenue","ELEVTYP_F":0,"ELEVTYP_T":0},"geometry":{"type":"LineString","coordinates":[[-74.9320149595809,38.9407545473524],[-74.9326661483933,38.941094943159],[-74.9326671285529,38.9410954557239],[-74.9326949629688,38.9411100051831],[-74.9331518962328,38.9413463209812]]}},{"type":"Feature","id":66598,"properties":{"OBJECTID":66598,"PRIMENAME":"Broadway","ELEVTYP_F":0,"ELEVTYP_T":0},"geometry":{"type":"LineString","coordinates":[[-74.9306170876597,38.9350993219881],[-74.9306090855477,38.9351791217599]]}},{"type":"Feature","id":68013,"properties":{"OBJECTID":68013,"PRIMENAME":"Atlantic Avenue","ELEVTYP_F":0,"ELEVTYP_T":0},"geometry":{"type":"LineString","coordinates":[[-74.9337898497764,38.9391207703534],[-74.9338939628063,38.9388798467307],[-74.933991128351,38.9386299572586]]}},{"type":"Feature","id":71914,"properties":{"OBJECTID":71914,"PRIMENAME":"Washington Street","ELEVTYP_F":0,"ELEVTYP_T":0},"geometry":{"type":"LineString","coordinates":[[-74.9225391162326,38.9328363771357],[-74.921499383205,38.9332970216751]]}},{"type":"Feature","id":74217,"properties":{"OBJECTID":74217,"PRIMENAME":"Decatur Street","ELEVTYP_F":0,"ELEVTYP_T":0},"geometry":{"type":"LineString","coordinates":[[-74.9227994690336,38.9331934413481],[-74.9229262642679,38.933369389618],[-74.9230009565778,38.9334730362064],[-74.9230525897372,38.9335422647748],[-74.9230788263517,38.9335616654267],[-74.9231212050914,38.9335820507706],[-74.9231961253593,38.9336061621421]]}},{"type":"Feature","id":75762,"properties":{"OBJECTID":75762,"PRIMENAME":"Bayshore Road","ELEVTYP_F":0,"ELEVTYP_T":0},"geometry":{"type":"LineString","coordinates":[[-74.9385659502726,38.9476560355107],[-74.9385374320506,38.9477353893224],[-74.9384286243517,38.9480302359867],[-74.9383410299151,38.9482622736335]]}},{"type":"Feature","id":76466,"properties":{"OBJECTID":76466,"PRIMENAME":"South Broadway","ELEVTYP_F":0,"ELEVTYP_T":0},"geometry":{"type":"LineString","coordinates":[[-74.931297595417,38.9319203729723],[-74.9313176078192,38.9323282781092],[-74.9313226227727,38.9324829066259],[-74.9313233872949,38.9326091310806],[-74.9313165914894,38.9326595977343],[-74.9313054651893,38.9327090092527],[-74.9312851898766,38.9327802844672],[-74.9312781415187,38.9328031502787],[-74.931197372904,38.9330651623503]]}},{"type":"Feature","id":76671,"properties":{"OBJECTID":76671,"PRIMENAME":"Maple Avenue","ELEVTYP_F":0,"ELEVTYP_T":0},"geometry":{"type":"LineString","coordinates":[[-74.9272536328613,38.9418140694084],[-74.9278235850792,38.9408321783131]]}},{"type":"Feature","id":79743,"properties":{"OBJECTID":79743,"PRIMENAME":"Columbia Avenue","ELEVTYP_F":0,"ELEVTYP_T":0},"geometry":{"type":"LineString","coordinates":[[-74.9353325471159,38.9405923527226],[-74.9353804506743,38.9405949748556],[-74.9354185769457,38.9405857158429],[-74.9354397420232,38.9405740499089],[-74.9354544973908,38.9405607592928],[-74.9354724181128,38.9405416363496],[-74.935483966254,38.9405213011865],[-74.9354889292398,38.9405089398609],[-74.9356452311761,38.9401197306226]]}},{"type":"Feature","id":80582,"properties":{"OBJECTID":80582,"PRIMENAME":"Perry Street","ELEVTYP_F":0,"ELEVTYP_T":0},"geometry":{"type":"LineString","coordinates":[[-74.924614101565,38.9324368230607],[-74.9249525661577,38.9329000542046]]}},{"type":"Feature","id":80643,"properties":{"OBJECTID":80643,"PRIMENAME":"South Bayshore Drive","ELEVTYP_F":0,"ELEVTYP_T":0},"geometry":{"type":"LineString","coordinates":[[-74.9425145694498,38.9390614412787],[-74.9425131679072,38.9392657655401],[-74.9424996168048,38.939540484729],[-74.9424952874818,38.9396193289969],[-74.9424892890418,38.9397286145549],[-74.9424710921978,38.9398839339199],[-74.9424606862205,38.9400481756826],[-74.9424466781791,38.9401645985481]]}},{"type":"Feature","id":80701,"properties":{"OBJECTID":80701,"PRIMENAME":"Broad Street","ELEVTYP_F":0,"ELEVTYP_T":0},"geometry":{"type":"LineString","coordinates":[[-74.9238629697922,38.93425632336],[-74.9239550965263,38.9341529364229],[-74.9240605629165,38.934069793961],[-74.9242477089317,38.9339356094384],[-74.9243633895426,38.9338497927299],[-74.9244279682141,38.9337961786606],[-74.9244687597459,38.9337506688029],[-74.9245245668953,38.9336882175047]]}},{"type":"Feature","id":82895,"properties":{"OBJECTID":82895,"PRIMENAME":"Park Boulevard","ELEVTYP_F":0,"ELEVTYP_T":0},"geometry":{"type":"LineString","coordinates":[[-74.9275356986235,38.9380746362257],[-74.9276943384165,38.9374551115414]]}},{"type":"Feature","id":83682,"properties":{"OBJECTID":83682,"PRIMENAME":"Venice Avenue","ELEVTYP_F":0,"ELEVTYP_T":0},"geometry":{"type":"LineString","coordinates":[[-74.9251926356677,38.9362078688785],[-74.9251807019241,38.9362225352716],[-74.9251296226335,38.9362467475221],[-74.9245875392962,38.9364782748736],[-74.9243728754213,38.9365858419352]]}},{"type":"Feature","id":84291,"properties":{"OBJECTID":84291,"PRIMENAME":"Columbia Avenue","ELEVTYP_F":0,"ELEVTYP_T":0},"geometry":{"type":"LineString","coordinates":[[-74.9362394822075,38.9386290299741],[-74.9364404689771,38.9381131623606]]}},{"type":"Feature","id":84539,"properties":{"OBJECTID":84539,"PRIMENAME":"Pacific Avenue","ELEVTYP_F":0,"ELEVTYP_T":0},"geometry":{"type":"LineString","coordinates":[[-74.931355282375,38.9396328065688],[-74.9311018868635,38.9402766571788]]}},{"type":"Feature","id":84679,"properties":{"OBJECTID":84679,"PRIMENAME":"Pacific Avenue","ELEVTYP_F":0,"ELEVTYP_T":0},"geometry":{"type":"LineString","coordinates":[[-74.9323295129672,38.9371500234577],[-74.9321357278223,38.9376430726728]]}},{"type":"Feature","id":86115,"properties":{"OBJECTID":86115,"PRIMENAME":"3rd Avenue","ELEVTYP_F":0,"ELEVTYP_T":0},"geometry":{"type":"LineString","coordinates":[[-74.9341866748969,38.9381270529105],[-74.9344100736397,38.9381793261866],[-74.9357785073356,38.9385181990216],[-74.9361616476451,38.9386071612499],[-74.9362394822075,38.9386290299741]]}},{"type":"Feature","id":87470,"properties":{"OBJECTID":87470,"PRIMENAME":"Sunset Boulevard","ELEVTYP_F":0,"ELEVTYP_T":0},"geometry":{"type":"LineString","coordinates":[[-74.9424650640424,38.937923939053],[-74.9424235865667,38.9379140182437],[-74.9403365282088,38.9374146132915],[-74.938431539278,38.9369597937448],[-74.9370269963856,38.9366238878902]]}},{"type":"Feature","id":90641,"properties":{"OBJECTID":90641,"PRIMENAME":"2nd Avenue","ELEVTYP_F":0,"ELEVTYP_T":0},"geometry":{"type":"LineString","coordinates":[[-74.9336078521677,38.9326580287544],[-74.9335603847536,38.9318425748923]]}},{"type":"Feature","id":90789,"properties":{"OBJECTID":90789,"PRIMENAME":"Unnamed Segment","ELEVTYP_F":0,"ELEVTYP_T":0},"geometry":{"type":"LineString","coordinates":[[-74.9339234568821,38.9466733819989],[-74.9338923059734,38.9465455267549],[-74.9338311937219,38.9464400712496],[-74.9336897492928,38.9463821350413],[-74.9323456557126,38.9464815613195],[-74.9321962842344,38.946540577271],[-74.9321595622128,38.9466576387494],[-74.9322379462103,38.9467630311708],[-74.9323764050305,38.9468029916567],[-74.9336658761992,38.9467172602825],[-74.9339234568821,38.9466733819989]]}},{"type":"Feature","id":90858,"properties":{"OBJECTID":90858,"PRIMENAME":"South Broadway","ELEVTYP_F":0,"ELEVTYP_T":0},"geometry":{"type":"LineString","coordinates":[[-74.931197372904,38.9330651623503],[-74.931193752751,38.933076845599],[-74.9311640408705,38.933174734928]]}},{"type":"Feature","id":91125,"properties":{"OBJECTID":91125,"PRIMENAME":"Broadway","ELEVTYP_F":0,"ELEVTYP_T":0},"geometry":{"type":"LineString","coordinates":[[-74.9304246800206,38.9366822495358],[-74.9304043158674,38.9368263584123],[-74.930376061375,38.9370262917506],[-74.9303745513737,38.9370381050196]]}},{"type":"Feature","id":91233,"properties":{"OBJECTID":91233,"PRIMENAME":"2nd Avenue","ELEVTYP_F":0,"ELEVTYP_T":0},"geometry":{"type":"LineString","coordinates":[[-74.9425145694498,38.9390614412787],[-74.9421248326718,38.9389649179774],[-74.9414133228318,38.938794375435],[-74.9404256874489,38.9385569649992],[-74.940144408295,38.9384926471716]]}},{"type":"Feature","id":94189,"properties":{"OBJECTID":94189,"PRIMENAME":"East Lyle Lane","ELEVTYP_F":0,"ELEVTYP_T":0},"geometry":{"type":"LineString","coordinates":[[-74.9236396640974,38.932774452341],[-74.9235031151806,38.9328564730172],[-74.9231171519645,38.9330478311541],[-74.9227994690336,38.9331934413481]]}},{"type":"Feature","id":94873,"properties":{"OBJECTID":94873,"PRIMENAME":"Unnamed Segment","ELEVTYP_F":0,"ELEVTYP_T":0},"geometry":{"type":"LineString","coordinates":[[-74.9299134036022,38.9422312972737],[-74.9320561970036,38.9433899835794]]}},{"type":"Feature","id":96297,"properties":{"OBJECTID":96297,"PRIMENAME":"Park Boulevard","ELEVTYP_F":0,"ELEVTYP_T":0},"geometry":{"type":"LineString","coordinates":[[-74.9272681783379,38.939199412904],[-74.927439781185,38.9384719008147]]}},{"type":"Feature","id":97138,"properties":{"OBJECTID":97138,"PRIMENAME":"4th Avenue","ELEVTYP_F":0,"ELEVTYP_T":0},"geometry":{"type":"LineString","coordinates":[[-74.9317471590701,38.9386343645333],[-74.9314057692974,38.9385532512467],[-74.9302110852205,38.9382688516179]]}},{"type":"Feature","id":98799,"properties":{"OBJECTID":98799,"PRIMENAME":"Sunset Boulevard","ELEVTYP_F":0,"ELEVTYP_T":0},"geometry":{"type":"LineString","coordinates":[[-74.9615782732474,38.9424891789263],[-74.9608599460699,38.9423189578301],[-74.9601863170495,38.9421593241639],[-74.9591585249046,38.941916162665],[-74.958026281484,38.9416462453271],[-74.9569567184644,38.9413896368856],[-74.9551799698071,38.9409700925596],[-74.9534032439466,38.9405396205124],[-74.9519888687791,38.9402054171172],[-74.9519746865244,38.9402021901685]]}},{"type":"Feature","id":99759,"properties":{"OBJECTID":99759,"PRIMENAME":"Broadway","ELEVTYP_F":0,"ELEVTYP_T":0},"geometry":{"type":"LineString","coordinates":[[-74.9299134036022,38.9422312972737],[-74.9298420153532,38.9423548080884],[-74.9294778227325,38.9430016438772]]}},{"type":"Feature","id":99822,"properties":{"OBJECTID":99822,"PRIMENAME":"Stimpson Lane","ELEVTYP_F":0,"ELEVTYP_T":0},"geometry":{"type":"LineString","coordinates":[[-74.927895781369,38.9454670252627],[-74.9278089849471,38.945563722857],[-74.9277343541862,38.9456429394916]]}},{"type":"Feature","id":99992,"properties":{"OBJECTID":99992,"PRIMENAME":"Leaming Avenue","ELEVTYP_F":0,"ELEVTYP_T":0},"geometry":{"type":"LineString","coordinates":[[-74.9272681783379,38.939199412904],[-74.9273594240601,38.9392495744134],[-74.9275419147466,38.9393498990206],[-74.9289542304903,38.9401284676306],[-74.9296738974445,38.9405229257353],[-74.9301807106571,38.9407945737536],[-74.9302289403152,38.9408318856727],[-74.9302530557427,38.940850542073],[-74.9302787436418,38.9408656045092],[-74.9302869165148,38.9408682932049]]}},{"type":"Feature","id":100719,"properties":{"OBJECTID":100719,"PRIMENAME":"Columbia Avenue","ELEVTYP_F":0,"ELEVTYP_T":0},"geometry":{"type":"LineString","coordinates":[[-74.9368300213828,38.9371233520921],[-74.9370269963856,38.9366238878902]]}},{"type":"Feature","id":101889,"properties":{"OBJECTID":101889,"PRIMENAME":"Unnamed Segment","ELEVTYP_F":0,"ELEVTYP_T":0},"geometry":{"type":"LineString","coordinates":[[-74.9329469700314,38.9448379797477],[-74.9333123949396,38.9450434541468]]}},{"type":"Feature","id":102756,"properties":{"OBJECTID":102756,"PRIMENAME":"Broadway","ELEVTYP_F":0,"ELEVTYP_T":0},"geometry":{"type":"LineString","coordinates":[[-74.9305659122736,38.9356249027344],[-74.9305569165818,38.9357185696504],[-74.9305127074388,38.9360299481813],[-74.9304968042746,38.9361500558729]]}},{"type":"Feature","id":104205,"properties":{"OBJECTID":104205,"PRIMENAME":"Lafayette Street","ELEVTYP_F":0,"ELEVTYP_T":0},"geometry":{"type":"LineString","coordinates":[[-74.9211386998976,38.9357193192898],[-74.9206381720123,38.9362380326005]]}},{"type":"Feature","id":104955,"properties":{"OBJECTID":104955,"PRIMENAME":"Broadway","ELEVTYP_F":0,"ELEVTYP_T":0},"geometry":{"type":"LineString","coordinates":[[-74.9304968042746,38.9361500558729],[-74.9304524954999,38.9364854879549],[-74.9304447420825,38.9365406533919]]}},{"type":"Feature","id":105733,"properties":{"OBJECTID":105733,"PRIMENAME":"Central Avenue","ELEVTYP_F":0,"ELEVTYP_T":0},"geometry":{"type":"LineString","coordinates":[[-74.9294778227325,38.9430016438772],[-74.9292509326139,38.9428911067598],[-74.9291256516083,38.9428265453931],[-74.9289418971911,38.9427264487006],[-74.9287342600599,38.9426133408056]]}},{"type":"Feature","id":107219,"properties":{"OBJECTID":107219,"PRIMENAME":"Unnamed Segment","ELEVTYP_F":0,"ELEVTYP_T":0},"geometry":{"type":"LineString","coordinates":[[-74.9333123949396,38.9450434541468],[-74.9325322941401,38.9459300104161]]}},{"type":"Feature","id":107759,"properties":{"OBJECTID":107759,"PRIMENAME":"3rd Avenue","ELEVTYP_F":0,"ELEVTYP_T":0},"geometry":{"type":"LineString","coordinates":[[-74.9303520270244,38.9372088155215],[-74.9321357278223,38.9376430726728]]}},{"type":"Feature","id":108517,"properties":{"OBJECTID":108517,"PRIMENAME":"Westwood Drive","ELEVTYP_F":0,"ELEVTYP_T":0},"geometry":{"type":"LineString","coordinates":[[-74.9339234568821,38.9466733819989],[-74.9358208712653,38.9478778677205]]}},{"type":"Feature","id":108945,"properties":{"OBJECTID":108945,"PRIMENAME":"Unnamed Segment","ELEVTYP_F":0,"ELEVTYP_T":0},"geometry":{"type":"LineString","coordinates":[[-74.9325322941401,38.9459300104161],[-74.9324902371262,38.9459270186257],[-74.9321564243594,38.9458400501113],[-74.9321161491927,38.9458181549711]]}},{"type":"Feature","id":110460,"properties":{"OBJECTID":110460,"PRIMENAME":"Leaming Avenue","ELEVTYP_F":0,"ELEVTYP_T":0},"geometry":{"type":"LineString","coordinates":[[-74.9252999318002,38.937875037038],[-74.9253970844549,38.9380094927893],[-74.9254422075729,38.9380770422178],[-74.9254770814847,38.9381292502382],[-74.9255346645311,38.938186922118],[-74.9256057905245,38.9382576711636],[-74.9256802142116,38.9383152545387],[-74.9257681854819,38.9383806971866],[-74.9258965806343,38.9384564811078],[-74.9260519691943,38.938542711044],[-74.9262378302778,38.9386445902181],[-74.926829002738,38.9389580388892],[-74.9272681783379,38.939199412904]]}},{"type":"Feature","id":112518,"properties":{"OBJECTID":112518,"PRIMENAME":"Goldbeaten Alley","ELEVTYP_F":0,"ELEVTYP_T":0},"geometry":{"type":"LineString","coordinates":[[-74.9364404689771,38.9381131623606],[-74.937300639936,38.938313869253],[-74.9372816392231,38.9383558696048],[-74.9399492976563,38.9389985821604]]}},{"type":"Feature","id":113270,"properties":{"OBJECTID":113270,"PRIMENAME":"Morrison Avenue","ELEVTYP_F":0,"ELEVTYP_T":0},"geometry":{"type":"LineString","coordinates":[[-74.940144408295,38.9384926471716],[-74.9399492976563,38.9389985821604]]}},{"type":"Feature","id":114696,"properties":{"OBJECTID":114696,"PRIMENAME":"Bough Hall Alley","ELEVTYP_F":0,"ELEVTYP_T":0},"geometry":{"type":"LineString","coordinates":[[-74.9360444461688,38.9391231117689],[-74.933991128351,38.9386299572586]]}},{"type":"Feature","id":117284,"properties":{"OBJECTID":117284,"PRIMENAME":"2nd Avenue","ELEVTYP_F":0,"ELEVTYP_T":0},"geometry":{"type":"LineString","coordinates":[[-74.940144408295,38.9384926471716],[-74.9401418693234,38.938492065775],[-74.9393180366364,38.9383036327465],[-74.9386185278896,38.9381330270519],[-74.9381142102302,38.9380178647277],[-74.9372854528253,38.9377821383442],[-74.9369372148353,38.9376968652275],[-74.9366335490548,38.9376215294041]]}},{"type":"Feature","id":118502,"properties":{"OBJECTID":118502,"PRIMENAME":"Park Boulevard","ELEVTYP_F":0,"ELEVTYP_T":0},"geometry":{"type":"LineString","coordinates":[[-74.927439781185,38.9384719008147],[-74.927507701681,38.9381840241821],[-74.9275356986235,38.9380746362257]]}},{"type":"Feature","id":119381,"properties":{"OBJECTID":119381,"PRIMENAME":"Central Avenue","ELEVTYP_F":0,"ELEVTYP_T":0},"geometry":{"type":"LineString","coordinates":[[-74.9279909592384,38.9422087208583],[-74.9272536328613,38.9418140694084]]}},{"type":"Feature","id":121129,"properties":{"OBJECTID":121129,"PRIMENAME":"Congress Street","ELEVTYP_F":0,"ELEVTYP_T":0},"geometry":{"type":"LineString","coordinates":[[-74.9263515035935,38.932075231029],[-74.9268909150612,38.9326303400617],[-74.9273328141789,38.9330860456473]]}},{"type":"Feature","id":121393,"properties":{"OBJECTID":121393,"PRIMENAME":"Unnamed Segment","ELEVTYP_F":0,"ELEVTYP_T":0},"geometry":{"type":"LineString","coordinates":[[-74.9329469700314,38.9448379797477],[-74.9321161491927,38.9458181549711]]}},{"type":"Feature","id":121813,"properties":{"OBJECTID":121813,"PRIMENAME":"Pacific Avenue","ELEVTYP_F":0,"ELEVTYP_T":0},"geometry":{"type":"LineString","coordinates":[[-74.9315501221578,38.9391376675815],[-74.9315497495451,38.9391386139713],[-74.931355282375,38.9396328065688]]}},{"type":"Feature","id":124110,"properties":{"OBJECTID":124110,"PRIMENAME":"Jackson Street","ELEVTYP_F":0,"ELEVTYP_T":0},"geometry":{"type":"LineString","coordinates":[[-74.9245245668953,38.9336882175047],[-74.9245036523497,38.9336828568108],[-74.9244122031761,38.933646175271],[-74.9243133573536,38.9335951867943],[-74.924225428531,38.9335356462329],[-74.9241520040074,38.9334617750046],[-74.9240452694681,38.9333139686692],[-74.9238324740113,38.9330547637357]]}},{"type":"Feature","id":126831,"properties":{"OBJECTID":126831,"PRIMENAME":"Unnamed Segment","ELEVTYP_F":0,"ELEVTYP_T":0},"geometry":{"type":"LineString","coordinates":[[-74.932219855438,38.9444552288592],[-74.9325767552071,38.9446410468651]]}},{"type":"Feature","id":129237,"properties":{"OBJECTID":129237,"PRIMENAME":"Wilson Street","ELEVTYP_F":0,"ELEVTYP_T":0},"geometry":{"type":"LineString","coordinates":[[-74.9261626995067,38.9493870291287],[-74.9253617133909,38.9493127105413],[-74.9247133022131,38.9492489570814],[-74.9245007827293,38.9492280598244]]}},{"type":"Feature","id":129300,"properties":{"OBJECTID":129300,"PRIMENAME":"Broadway","ELEVTYP_F":0,"ELEVTYP_T":0},"geometry":{"type":"LineString","coordinates":[[-74.9306090855477,38.9351791217599],[-74.9306003427339,38.935266331217],[-74.9305774863974,38.9355040425494]]}},{"type":"Feature","id":129765,"properties":{"OBJECTID":129765,"PRIMENAME":"Douglas Avenue","ELEVTYP_F":0,"ELEVTYP_T":0},"geometry":{"type":"LineString","coordinates":[[-74.9466705833748,38.9389339380671],[-74.9466706439379,38.9389358692989],[-74.9466896434113,38.9395418689137],[-74.9466936442918,38.9398888692652]]}},{"type":"Feature","id":133330,"properties":{"OBJECTID":133330,"PRIMENAME":"Seashore Road","ELEVTYP_F":0,"ELEVTYP_T":0},"geometry":{"type":"LineString","coordinates":[[-74.9260695923713,38.9499814888238],[-74.9258882068902,38.9511377148223],[-74.9258851255771,38.9511574145321]]}},{"type":"Feature","id":134377,"properties":{"OBJECTID":134377,"PRIMENAME":"Stevens Street","ELEVTYP_F":0,"ELEVTYP_T":0},"geometry":{"type":"LineString","coordinates":[[-74.945729725209,38.9417774880581],[-74.9465037438583,38.9416770251354],[-74.947590209869,38.9415402119924],[-74.948579103298,38.941420292901],[-74.9491393110344,38.9413484762561],[-74.9495083791538,38.9412807434969],[-74.9500133008137,38.9411958459394],[-74.9505520875895,38.9411008752996],[-74.9512097452576,38.9409889126861],[-74.9514549772894,38.9409489181045]]}},{"type":"Feature","id":134677,"properties":{"OBJECTID":134677,"PRIMENAME":"West Drive","ELEVTYP_F":0,"ELEVTYP_T":0},"geometry":{"type":"LineString","coordinates":[[-74.945729725209,38.9417774880581],[-74.9457226047492,38.940943489984]]}},{"type":"Feature","id":146517,"properties":{"OBJECTID":146517,"PRIMENAME":"York Avenue","ELEVTYP_F":0,"ELEVTYP_T":0},"geometry":{"type":"LineString","coordinates":[[-74.9304447420825,38.9365406533919],[-74.9303341392002,38.93651092079],[-74.9280748770645,38.9359035427559]]}},{"type":"Feature","id":146880,"properties":{"OBJECTID":146880,"PRIMENAME":"Stevens Street","ELEVTYP_F":0,"ELEVTYP_T":0},"geometry":{"type":"LineString","coordinates":[[-74.9514549772894,38.9409489181045],[-74.9516892157703,38.9409107231451],[-74.9517451104962,38.9409004162045],[-74.9518546946157,38.9408802080633],[-74.9519063278363,38.9408665807245],[-74.9519398325222,38.9408551928472],[-74.9519613014375,38.9408363833621],[-74.9519731009039,38.9408120367389],[-74.9519776310746,38.9407613849681]]}},{"type":"Feature","id":147193,"properties":{"OBJECTID":147193,"PRIMENAME":"Unnamed Segment","ELEVTYP_F":0,"ELEVTYP_T":0},"geometry":{"type":"LineString","coordinates":[[-74.9333123949396,38.9450434541468],[-74.9338565136885,38.9453494020215],[-74.9344943462172,38.9457360910946],[-74.9346820992633,38.9458499149273],[-74.9349276016619,38.9459210680555],[-74.9352643386138,38.9461183128478],[-74.9349357166622,38.9464172892649],[-74.9345082713868,38.9463513900283],[-74.9343096663238,38.9462965492246],[-74.9340594644539,38.9462274608538],[-74.9335261169096,38.9461922732255],[-74.9331898181153,38.9460664813723],[-74.9330621209724,38.9459677047548],[-74.9326908403946,38.9459412917222],[-74.9325322941401,38.9459300104161]]}},{"type":"Feature","id":147255,"properties":{"OBJECTID":147255,"PRIMENAME":"Broadway","ELEVTYP_F":0,"ELEVTYP_T":0},"geometry":{"type":"LineString","coordinates":[[-74.9301504663579,38.9387567382929],[-74.9301476214422,38.9387862666709],[-74.9301444273436,38.938950069149],[-74.9301454168969,38.9391138562055],[-74.9301591714081,38.9393070861812],[-74.9301628428868,38.9393504017733]]}},{"type":"Feature","id":147283,"properties":{"OBJECTID":147283,"PRIMENAME":"1st Avenue","ELEVTYP_F":0,"ELEVTYP_T":0},"geometry":{"type":"LineString","coordinates":[[-74.9321576426314,38.9354554496564],[-74.9322104662331,38.9352788051577],[-74.9323746531879,38.9347409154516]]}},{"type":"Feature","id":147554,"properties":{"OBJECTID":147554,"PRIMENAME":"Pearl Avenue","ELEVTYP_F":0,"ELEVTYP_T":0},"geometry":{"type":"LineString","coordinates":[[-74.9278340932144,38.9369054552064],[-74.9303745513737,38.9370381050196]]}},{"type":"Feature","id":147650,"properties":{"OBJECTID":147650,"PRIMENAME":"Decatur Street","ELEVTYP_F":0,"ELEVTYP_T":0},"geometry":{"type":"LineString","coordinates":[[-74.9222711441937,38.9324757742315],[-74.9225391162326,38.9328363771357]]}},{"type":"Feature","id":148052,"properties":{"OBJECTID":148052,"PRIMENAME":"4th Avenue","ELEVTYP_F":0,"ELEVTYP_T":0},"geometry":{"type":"LineString","coordinates":[[-74.9408113106508,38.9422825120311],[-74.9403927280174,38.9420271624832],[-74.939895478959,38.9417234790086],[-74.9394359036469,38.9414391472709],[-74.9391225017065,38.9412420481634],[-74.9388342604357,38.9410708301727],[-74.9386044242247,38.940928690078],[-74.9384904413452,38.940861075683]]}},{"type":"Feature","id":149536,"properties":{"OBJECTID":149536,"PRIMENAME":"Windsor Avenue","ELEVTYP_F":0,"ELEVTYP_T":0},"geometry":{"type":"LineString","coordinates":[[-74.9287198858964,38.9331904369678],[-74.9284867790689,38.9331341245263],[-74.9284131146223,38.9331144045868],[-74.9283617333442,38.9330821095589],[-74.928307062467,38.9330348342905],[-74.9281139639637,38.9328381709078],[-74.927389859798,38.9320938953365],[-74.9269953066517,38.9316887050976]]}},{"type":"Feature","id":149737,"properties":{"OBJECTID":149737,"PRIMENAME":"Lafayette Street","ELEVTYP_F":0,"ELEVTYP_T":0},"geometry":{"type":"LineString","coordinates":[[-74.9231961253593,38.9336061621421],[-74.9228409173535,38.9339689687353],[-74.9223579973821,38.9344646148093]]}},{"type":"Feature","id":150247,"properties":{"OBJECTID":150247,"PRIMENAME":"East Mechanic Street","ELEVTYP_F":0,"ELEVTYP_T":0},"geometry":{"type":"LineString","coordinates":[[-74.927439781185,38.9384719008147],[-74.9278142915459,38.9386477469888],[-74.9285532700939,38.9390123496055],[-74.9294508172984,38.9394576406674],[-74.9302024910524,38.9398257012433]]}},{"type":"Feature","id":150968,"properties":{"OBJECTID":150968,"PRIMENAME":"Jackson Street","ELEVTYP_F":0,"ELEVTYP_T":0},"geometry":{"type":"LineString","coordinates":[[-74.9238324740113,38.9330547637357],[-74.9237048800388,38.9328693052477]]}},{"type":"Feature","id":151812,"properties":{"OBJECTID":151812,"PRIMENAME":"Atlantic Avenue","ELEVTYP_F":0,"ELEVTYP_T":0},"geometry":{"type":"LineString","coordinates":[[-74.933991128351,38.9386299572586],[-74.9341866748969,38.9381270529105]]}},{"type":"Feature","id":152510,"properties":{"OBJECTID":152510,"PRIMENAME":"Sunset Boulevard","ELEVTYP_F":0,"ELEVTYP_T":0},"geometry":{"type":"LineString","coordinates":[[-74.9357897775613,38.9363282418201],[-74.9349726579893,38.9361330783704]]}},{"type":"Feature","id":153114,"properties":{"OBJECTID":153114,"PRIMENAME":"Bayshore Road","ELEVTYP_F":0,"ELEVTYP_T":0},"geometry":{"type":"LineString","coordinates":[[-74.9383410299151,38.9482622736335],[-74.9382955575703,38.9483827255846],[-74.9381704858222,38.9487032249082],[-74.9380413335223,38.949023710569],[-74.937887702671,38.9493666951954],[-74.9377987255181,38.9495590462435],[-74.9377541634638,38.9496488380163],[-74.9377408417424,38.9496784328385]]}},{"type":"Feature","id":153127,"properties":{"OBJECTID":153127,"PRIMENAME":"Sunset Boulevard","ELEVTYP_F":0,"ELEVTYP_T":0},"geometry":{"type":"LineString","coordinates":[[-74.9321576426314,38.9354554496564],[-74.9319500138046,38.9354047334345],[-74.9313367627331,38.9352642168139]]}},{"type":"Feature","id":154558,"properties":{"OBJECTID":154558,"PRIMENAME":"Oak Street","ELEVTYP_F":0,"ELEVTYP_T":0},"geometry":{"type":"LineString","coordinates":[[-74.9384904413452,38.940861075683],[-74.9382108036364,38.9411616990446],[-74.9380149312401,38.9413451160611],[-74.9378804841251,38.9415058679883],[-74.9376808869302,38.9417469891592],[-74.9373752871448,38.942103886923],[-74.9372527494812,38.9422692626889]]}},{"type":"Feature","id":154662,"properties":{"OBJECTID":154662,"PRIMENAME":"Pacific Avenue","ELEVTYP_F":0,"ELEVTYP_T":0},"geometry":{"type":"LineString","coordinates":[[-74.9329036550915,38.9356371249969],[-74.9327233587381,38.9361387754266]]}},{"type":"Feature","id":157766,"properties":{"OBJECTID":157766,"PRIMENAME":"Park Boulevard","ELEVTYP_F":0,"ELEVTYP_T":0},"geometry":{"type":"LineString","coordinates":[[-74.9287198858964,38.9331904369678],[-74.9288154465375,38.9327889165947],[-74.9288907781707,38.9325075186628]]}},{"type":"Feature","id":159233,"properties":{"OBJECTID":159233,"PRIMENAME":"Sunset Boulevard","ELEVTYP_F":0,"ELEVTYP_T":0},"geometry":{"type":"LineString","coordinates":[[-74.9466705833748,38.9389339380671],[-74.9462608013463,38.9388354729277],[-74.9457138579816,38.9387038133378]]}},{"type":"Feature","id":160983,"properties":{"OBJECTID":160983,"PRIMENAME":"5th Avenue","ELEVTYP_F":0,"ELEVTYP_T":0},"geometry":{"type":"LineString","coordinates":[[-74.9361859434811,38.9417176026559],[-74.9357162390562,38.9414762943755],[-74.9355797173589,38.9414042632337],[-74.9343647317856,38.9407632082173],[-74.9338409141579,38.9404904884868]]}},{"type":"Feature","id":165868,"properties":{"OBJECTID":165868,"PRIMENAME":"Elmira Street","ELEVTYP_F":0,"ELEVTYP_T":0},"geometry":{"type":"LineString","coordinates":[[-74.9243728754213,38.9365858419352],[-74.9250724923808,38.9375602718512],[-74.9252999318002,38.937875037038]]}},{"type":"Feature","id":167687,"properties":{"OBJECTID":167687,"PRIMENAME":"Unnamed Segment","ELEVTYP_F":0,"ELEVTYP_T":0},"geometry":{"type":"LineString","coordinates":[[-74.9316551440658,38.9444960730928],[-74.9317761405764,38.9443288837738],[-74.9318621995395,38.9442690161678],[-74.932219855438,38.9444552288592]]}},{"type":"Feature","id":167926,"properties":{"OBJECTID":167926,"PRIMENAME":"Chestnut Street","ELEVTYP_F":0,"ELEVTYP_T":0},"geometry":{"type":"LineString","coordinates":[[-74.9242506378478,38.9326097064234],[-74.9251035385502,38.9337621709727]]}},{"type":"Feature","id":167960,"properties":{"OBJECTID":167960,"PRIMENAME":"Ceas Alley","ELEVTYP_F":0,"ELEVTYP_T":0},"geometry":{"type":"LineString","coordinates":[[-74.9335725830561,38.9396236987893],[-74.933581638658,38.9396258704806],[-74.9356452311761,38.9401197306226]]}},{"type":"Feature","id":168471,"properties":{"OBJECTID":168471,"PRIMENAME":"Fourth Avenue","ELEVTYP_F":0,"ELEVTYP_T":0},"geometry":{"type":"LineString","coordinates":[[-74.9372067224097,38.9401048503053],[-74.9373348619114,38.9400942823407],[-74.9373989120492,38.9400890001808],[-74.9374922331304,38.9400961745054],[-74.9376145130363,38.9401183144342],[-74.9378301606346,38.9401551791997],[-74.938033033803,38.9402071378228],[-74.9382520361661,38.9402690865328],[-74.9384806729004,38.9403309977382]]}},{"type":"Feature","id":168642,"properties":{"OBJECTID":168642,"PRIMENAME":"West Drive","ELEVTYP_F":0,"ELEVTYP_T":0},"geometry":{"type":"LineString","coordinates":[[-74.9457126751286,38.9398291502686],[-74.945713461229,38.9390448767301],[-74.9457138579816,38.9387038133378]]}},{"type":"Feature","id":168824,"properties":{"OBJECTID":168824,"PRIMENAME":"Sunset Boulevard","ELEVTYP_F":0,"ELEVTYP_T":0},"geometry":{"type":"LineString","coordinates":[[-74.9370269963856,38.9366238878902],[-74.9365420604924,38.9365079056354],[-74.9357897775613,38.9363282418201]]}},{"type":"Feature","id":170073,"properties":{"OBJECTID":170073,"PRIMENAME":"Unnamed Segment","ELEVTYP_F":0,"ELEVTYP_T":0},"geometry":{"type":"LineString","coordinates":[[-74.9325767552071,38.9446410468651],[-74.9328464700514,38.9447814707373],[-74.9329469700314,38.9448379797477]]}},{"type":"Feature","id":170950,"properties":{"OBJECTID":170950,"PRIMENAME":"Lafayette Street","ELEVTYP_F":0,"ELEVTYP_T":0},"geometry":{"type":"LineString","coordinates":[[-74.9238324740113,38.9330547637357],[-74.9237338473364,38.9330937015776],[-74.9237286020236,38.9330968664583],[-74.9236640676085,38.9331358011998],[-74.9235657304747,38.933229463038],[-74.9232709052365,38.9335298034803],[-74.9231961253593,38.9336061621421]]}},{"type":"Feature","id":173040,"properties":{"OBJECTID":173040,"PRIMENAME":"Stimpson Lane","ELEVTYP_F":0,"ELEVTYP_T":0},"geometry":{"type":"LineString","coordinates":[[-74.9377408417424,38.9496784328385],[-74.9366253278637,38.9493394346038],[-74.9349473919144,38.9488284824058]]}},{"type":"Feature","id":175080,"properties":{"OBJECTID":175080,"PRIMENAME":"Ocean Street","ELEVTYP_F":0,"ELEVTYP_T":0},"geometry":{"type":"LineString","coordinates":[[-74.9208990480029,38.9323613939956],[-74.9209475465532,38.9324180865865],[-74.9210888062661,38.9326150867235],[-74.9211577827376,38.9327162696277],[-74.921260119016,38.9329238717832]]}},{"type":"Feature","id":178201,"properties":{"OBJECTID":178201,"PRIMENAME":"Melody Court","ELEVTYP_F":0,"ELEVTYP_T":0},"geometry":{"type":"LineString","coordinates":[[-74.9325675438826,38.947769748385],[-74.9320781727338,38.9482843216447],[-74.9320128267166,38.9483229504216],[-74.9319433638975,38.9483552243588],[-74.9318778829347,38.9483714471679],[-74.9317918979423,38.9483813757572],[-74.9317456051853,38.9483842108725],[-74.9316916197513,38.9483826529611],[-74.9316499796166,38.9483757774894],[-74.9316072398074,38.9483671484756],[-74.9315564824294,38.9483471549108],[-74.9314964604261,38.9483184625591],[-74.9313153136119,38.9481815371063],[-74.930932325934,38.9478757187679]]}},{"type":"Feature","id":183414,"properties":{"OBJECTID":183414,"PRIMENAME":"West Grant Street","ELEVTYP_F":0,"ELEVTYP_T":0},"geometry":{"type":"LineString","coordinates":[[-74.9328459432021,38.9336213572746],[-74.932737708479,38.9335943000381]]}},{"type":"Feature","id":183958,"properties":{"OBJECTID":183958,"PRIMENAME":"Broadway","ELEVTYP_F":0,"ELEVTYP_T":0},"geometry":{"type":"LineString","coordinates":[[-74.9304447420825,38.9365406533919],[-74.9304246800206,38.9366822495358]]}},{"type":"Feature","id":184882,"properties":{"OBJECTID":184882,"PRIMENAME":"Unnamed Segment","ELEVTYP_F":0,"ELEVTYP_T":0},"geometry":{"type":"LineString","coordinates":[[-74.9310393912475,38.9452327989222],[-74.9316551440658,38.9444960730928]]}},{"type":"Feature","id":186207,"properties":{"OBJECTID":186207,"PRIMENAME":"Stewart Lane","ELEVTYP_F":0,"ELEVTYP_T":0},"geometry":{"type":"LineString","coordinates":[[-74.9316685524551,38.941262521047],[-74.9317586317618,38.9411175091866],[-74.9319020953089,38.9408934385411],[-74.9320149595809,38.9407545473524]]}},{"type":"Feature","id":186925,"properties":{"OBJECTID":186925,"PRIMENAME":"Elmira Street","ELEVTYP_F":0,"ELEVTYP_T":0},"geometry":{"type":"LineString","coordinates":[[-74.9223579973821,38.9344646148093],[-74.9223986413918,38.934494864914],[-74.9225358694774,38.9345798194281],[-74.922951040986,38.9348532588166],[-74.9232118050669,38.9350258240293],[-74.9232770548721,38.9350789667151],[-74.9233114026859,38.9351202227395]]}},{"type":"Feature","id":187026,"properties":{"OBJECTID":187026,"PRIMENAME":"Green Street","ELEVTYP_F":0,"ELEVTYP_T":0},"geometry":{"type":"LineString","coordinates":[[-74.937426215885,38.9402354449632],[-74.9372193511638,38.9404378750719],[-74.9370033740179,38.9406854814792],[-74.9368078697981,38.9409233724684],[-74.9363274364495,38.9415469411039],[-74.9361859434811,38.9417176026559]]}},{"type":"Feature","id":188040,"properties":{"OBJECTID":188040,"PRIMENAME":"Taylor Lane","ELEVTYP_F":0,"ELEVTYP_T":0},"geometry":{"type":"LineString","coordinates":[[-74.9280657200509,38.9503256270627],[-74.9284120973532,38.9503853413377],[-74.9291739084149,38.9505209609385],[-74.9306325390589,38.9507721879112],[-74.9307364242691,38.9507853139856],[-74.9308315429299,38.9507849629146],[-74.9309135622859,38.9507643689837],[-74.9309868653962,38.9507270014932],[-74.9310470343268,38.9506693633909],[-74.9311156286145,38.9505745982031],[-74.9313771200872,38.9501988503082],[-74.9314020614265,38.9501423034388],[-74.9314093569111,38.950116163918],[-74.9314109848626,38.9500771665383],[-74.9314100783664,38.9500321102804],[-74.9313962002299,38.9499876794235],[-74.9313712395609,38.9499422454191],[-74.9313275087317,38.9498922674313],[-74.9312814628148,38.9498547101388],[-74.9310889873696,38.9497407263],[-74.9302383732142,38.9492239379654],[-74.9296091275557,38.948841342772],[-74.9294659619897,38.9487574619041],[-74.9293532814263,38.9487139978776],[-74.9292233824338,38.9486840794552],[-74.929097931842,38.9486744086618],[-74.9289899021435,38.9486849378329],[-74.9289210691957,38.9486937571594],[-74.9288603289631,38.9487090554825],[-74.9287926592827,38.9487300078554],[-74.9287352229166,38.9487567710357],[-74.928627497974,38.9488179329458],[-74.9285760759401,38.9488566455971],[-74.9285371552625,38.9488925394547],[-74.9284966939144,38.9489354414031],[-74.9284658951935,38.9489771259275],[-74.9284395900512,38.9490291746519],[-74.9284171915981,38.9490820594499],[-74.9283622565347,38.9492848771179],[-74.9281167331537,38.9501602216832],[-74.9280657200509,38.9503256270627]]}},{"type":"Feature","id":191926,"properties":{"OBJECTID":191926,"PRIMENAME":"Lyle Lane","ELEVTYP_F":0,"ELEVTYP_T":0},"geometry":{"type":"LineString","coordinates":[[-74.9237048800388,38.9328693052477],[-74.9242506378478,38.9326097064234]]}},{"type":"Feature","id":192021,"properties":{"OBJECTID":192021,"PRIMENAME":"Columbia Avenue","ELEVTYP_F":0,"ELEVTYP_T":0},"geometry":{"type":"LineString","coordinates":[[-74.9358474880683,38.9396151301806],[-74.9360444461688,38.9391231117689]]}},{"type":"Feature","id":194006,"properties":{"OBJECTID":194006,"PRIMENAME":"Bayshore Road","ELEVTYP_F":0,"ELEVTYP_T":0},"geometry":{"type":"LineString","coordinates":[[-74.9417406885166,38.9427615001886],[-74.9417112218615,38.942817819604],[-74.9416962080336,38.9428447439279],[-74.9416845860141,38.9428655880643],[-74.9416471544942,38.9429190268951],[-74.9415579238673,38.9430279903316],[-74.9414401960408,38.943156804014],[-74.9413073371067,38.9433065713341],[-74.9410566757041,38.9435732344805],[-74.9406656124262,38.9440046024192],[-74.9406390091331,38.9440352648186]]}},{"type":"Feature","id":196948,"properties":{"OBJECTID":196948,"PRIMENAME":"Shunpike Road","ELEVTYP_F":0,"ELEVTYP_T":0},"geometry":{"type":"LineString","coordinates":[[-74.9347713076309,38.9487748620557],[-74.9346243904782,38.949177291822],[-74.9343745133348,38.9498566394959],[-74.9343445034973,38.9499372932635],[-74.9341527120098,38.950452737449],[-74.9341003956015,38.9506096929325],[-74.9340602305199,38.9507410663031],[-74.9340161645073,38.9509076015151],[-74.9339923273975,38.9510293307083],[-74.9339566302449,38.9512246661387],[-74.9339251099104,38.9514359944404],[-74.9338341285947,38.9519707570113],[-74.9337035672745,38.9527392560619],[-74.9336704514957,38.9529544341726]]}},{"type":"Feature","id":196975,"properties":{"OBJECTID":196975,"PRIMENAME":"Park Boulevard","ELEVTYP_F":0,"ELEVTYP_T":0},"geometry":{"type":"LineString","coordinates":[[-74.9283808448285,38.9345643091133],[-74.9285586158073,38.9338547860163]]}},{"type":"Feature","id":198165,"properties":{"OBJECTID":198165,"PRIMENAME":"North Street","ELEVTYP_F":0,"ELEVTYP_T":0},"geometry":{"type":"LineString","coordinates":[[-74.9263515035935,38.932075231029],[-74.9251434831199,38.9327916662469],[-74.9249525661577,38.9329000542046]]}},{"type":"Feature","id":199578,"properties":{"OBJECTID":199578,"PRIMENAME":"Ceas Alley","ELEVTYP_F":0,"ELEVTYP_T":0},"geometry":{"type":"LineString","coordinates":[[-74.9315501221578,38.9391376675815],[-74.9335725830561,38.9396236987893]]}},{"type":"Feature","id":199886,"properties":{"OBJECTID":199886,"PRIMENAME":"McCullough Alley","ELEVTYP_F":0,"ELEVTYP_T":0},"geometry":{"type":"LineString","coordinates":[[-74.9305659122736,38.9356249027344],[-74.9327233587381,38.9361387754266]]}},{"type":"Feature","id":199983,"properties":{"OBJECTID":199983,"PRIMENAME":"3rd Avenue","ELEVTYP_F":0,"ELEVTYP_T":0},"geometry":{"type":"LineString","coordinates":[[-74.9321357278223,38.9376430726728],[-74.9325716647745,38.9377492335281],[-74.9341866748969,38.9381270529105]]}},{"type":"Feature","id":201331,"properties":{"OBJECTID":201331,"PRIMENAME":"Park Boulevard","ELEVTYP_F":0,"ELEVTYP_T":0},"geometry":{"type":"LineString","coordinates":[[-74.9283522086296,38.9346897072429],[-74.9283628310173,38.9346431878591]]}},{"type":"Feature","id":203841,"properties":{"OBJECTID":203841,"PRIMENAME":"Park Boulevard","ELEVTYP_F":0,"ELEVTYP_T":0},"geometry":{"type":"LineString","coordinates":[[-74.9283628310173,38.9346431878591],[-74.9283808448285,38.9345643091133]]}},{"type":"Feature","id":204669,"properties":{"OBJECTID":204669,"PRIMENAME":"Bayshore Road","ELEVTYP_F":0,"ELEVTYP_T":0},"geometry":{"type":"LineString","coordinates":[[-74.9388746647705,38.947022364824],[-74.9388646530104,38.9470385532327],[-74.9387813566736,38.9471705571021],[-74.9387475084901,38.9472354036085],[-74.938694833677,38.9473379951708],[-74.9386898925149,38.9473488286638],[-74.9386271686382,38.9474863107471],[-74.938626104362,38.9474886434906],[-74.9385659502726,38.9476560355107]]}},{"type":"Feature","id":206053,"properties":{"OBJECTID":206053,"PRIMENAME":"Jackson Street","ELEVTYP_F":0,"ELEVTYP_T":0},"geometry":{"type":"LineString","coordinates":[[-74.9237048800388,38.9328693052477],[-74.9236396640974,38.932774452341]]}},{"type":"Feature","id":210217,"properties":{"OBJECTID":210217,"PRIMENAME":"Bank Street","ELEVTYP_F":0,"ELEVTYP_T":0},"geometry":{"type":"LineString","coordinates":[[-74.9231961253593,38.9336061621421],[-74.9232787651108,38.9336455404549],[-74.9235430023969,38.9338234192237],[-74.9235842004332,38.933857977574],[-74.9236323960622,38.9339165367316],[-74.9238599556749,38.9342520236394],[-74.9238629697922,38.93425632336]]}},{"type":"Feature","id":212109,"properties":{"OBJECTID":212109,"PRIMENAME":"Atlantic Avenue","ELEVTYP_F":0,"ELEVTYP_T":0},"geometry":{"type":"LineString","coordinates":[[-74.9343826042123,38.9376230531169],[-74.9343868879238,38.9376120366558],[-74.9345818126178,38.9371238117547]]}},{"type":"Feature","id":215288,"properties":{"OBJECTID":215288,"PRIMENAME":"Congress Street","ELEVTYP_F":0,"ELEVTYP_T":0},"geometry":{"type":"LineString","coordinates":[[-74.9285586158073,38.9338547860163],[-74.9296250181362,38.9341242162079],[-74.9306148034293,38.934355394475],[-74.9307140884177,38.9343850127395],[-74.9307854643432,38.9344154483093]]}},{"type":"Feature","id":215435,"properties":{"OBJECTID":215435,"PRIMENAME":"Farmdale Road","ELEVTYP_F":0,"ELEVTYP_T":0},"geometry":{"type":"LineString","coordinates":[[-74.9286840526902,38.9444001969483],[-74.9290415499167,38.9445596263341],[-74.9291664418474,38.944611777027],[-74.9292204704067,38.9446326397703],[-74.9292811986656,38.9446507581254],[-74.9293721877719,38.944660995142],[-74.9295002847937,38.9446789213937],[-74.9296082110158,38.9447048295736],[-74.9296640666479,38.9447196982124]]}},{"type":"Feature","id":215501,"properties":{"OBJECTID":215501,"PRIMENAME":"Sunset Boulevard","ELEVTYP_F":0,"ELEVTYP_T":0},"geometry":{"type":"LineString","coordinates":[[-74.9519746865244,38.9402021901685],[-74.9517643555363,38.9401524971969],[-74.951763507582,38.9401522968824],[-74.9504049299155,38.9398313046419],[-74.9504040819687,38.9398311043174],[-74.9484881737208,38.9393706583619],[-74.9484873269156,38.9393704544156],[-74.9466714301697,38.9389341420266],[-74.9466705833748,38.9389339380671]]}},{"type":"Feature","id":216086,"properties":{"OBJECTID":216086,"PRIMENAME":"5th Avenue","ELEVTYP_F":0,"ELEVTYP_T":0},"geometry":{"type":"LineString","coordinates":[[-74.939711244283,38.9435572781151],[-74.9394288809587,38.9434058361282],[-74.9380740618955,38.942697830819],[-74.9372527494812,38.9422692626889]]}},{"type":"Feature","id":218421,"properties":{"OBJECTID":218421,"PRIMENAME":"Columbia Avenue","ELEVTYP_F":0,"ELEVTYP_T":0},"geometry":{"type":"LineString","coordinates":[[-74.9360444461688,38.9391231117689],[-74.9361387540839,38.9388875162958],[-74.9362394822075,38.9386290299741]]}},{"type":"Feature","id":221205,"properties":{"OBJECTID":221205,"PRIMENAME":"Ceas Alley","ELEVTYP_F":0,"ELEVTYP_T":0},"geometry":{"type":"LineString","coordinates":[[-74.9301504663579,38.9387567382929],[-74.9301835368204,38.9387950592291],[-74.930196251948,38.9388048147304],[-74.9302128007272,38.9388144741217],[-74.9302373976057,38.9388237741284],[-74.9302628581717,38.9388305449078],[-74.9306921477457,38.9389297068687],[-74.9315501221578,38.9391376675815]]}},{"type":"Feature","id":223104,"properties":{"OBJECTID":223104,"PRIMENAME":"Grand Avenue","ELEVTYP_F":0,"ELEVTYP_T":0},"geometry":{"type":"LineString","coordinates":[[-74.9287342600599,38.9426133408056],[-74.9287600433048,38.9425566535033],[-74.928793330375,38.9424907686826],[-74.9289167634738,38.9422956887113],[-74.929233256053,38.9417264903485]]}},{"type":"Feature","id":226707,"properties":{"OBJECTID":226707,"PRIMENAME":"Bayshore Road","ELEVTYP_F":0,"ELEVTYP_T":0},"geometry":{"type":"LineString","coordinates":[[-74.9377408417424,38.9496784328385],[-74.9376935593448,38.9497834468419],[-74.9376330583409,38.9499404895556],[-74.9375766153181,38.9500942765996],[-74.9375042751438,38.9503217664327],[-74.9374238824851,38.9505780907336],[-74.937343410455,38.9508215923172],[-74.9372187418633,38.9512092792985],[-74.9370980299194,38.9515713594626],[-74.9370417418092,38.9517507644986],[-74.9369975853705,38.9519013476721],[-74.936973732004,38.9520198379857],[-74.9369580140277,38.9521286603558],[-74.9369546457099,38.9522503134862],[-74.9369552351301,38.9523463059051],[-74.9369683093517,38.9524711108667],[-74.9369896206195,38.9526085980237],[-74.9370397979715,38.9527684113855],[-74.9371105209565,38.9529409698204],[-74.9372310694632,38.9532157071056],[-74.9373266692429,38.9534361704027]]}},{"type":"Feature","id":229400,"properties":{"OBJECTID":229400,"PRIMENAME":"Washington Street","ELEVTYP_F":0,"ELEVTYP_T":0},"geometry":{"type":"LineString","coordinates":[[-74.9234029801314,38.9324448023138],[-74.9234006358502,38.9324458684391],[-74.9225391162326,38.9328363771357]]}},{"type":"Feature","id":229563,"properties":{"OBJECTID":229563,"PRIMENAME":"3rd Avenue","ELEVTYP_F":0,"ELEVTYP_T":0},"geometry":{"type":"LineString","coordinates":[[-74.9457226047492,38.940943489984],[-74.9446836449997,38.9407086458813],[-74.9436538911424,38.9404550581788],[-74.9424466781791,38.9401645985481]]}},{"type":"Feature","id":230795,"properties":{"OBJECTID":230795,"PRIMENAME":"Goldbeatten Alley","ELEVTYP_F":0,"ELEVTYP_T":0},"geometry":{"type":"LineString","coordinates":[[-74.9304246800206,38.9366822495358],[-74.931158047199,38.9368530262262],[-74.9317537105958,38.9370014895853],[-74.9323295129672,38.9371500234577]]}},{"type":"Feature","id":231347,"properties":{"OBJECTID":231347,"PRIMENAME":"4th Avenue","ELEVTYP_F":0,"ELEVTYP_T":0},"geometry":{"type":"LineString","coordinates":[[-74.9358474880683,38.9396151301806],[-74.9355949601936,38.9395551695608],[-74.9347862699964,38.9393598789389],[-74.9337898497764,38.9391207703534]]}},{"type":"Feature","id":231424,"properties":{"OBJECTID":231424,"PRIMENAME":"Westwood Drive","ELEVTYP_F":0,"ELEVTYP_T":0},"geometry":{"type":"LineString","coordinates":[[-74.9349473919144,38.9488284824058],[-74.934983041751,38.9487896915056]]}},{"type":"Feature","id":231843,"properties":{"OBJECTID":231843,"PRIMENAME":"Broad Street","ELEVTYP_F":0,"ELEVTYP_T":0},"geometry":{"type":"LineString","coordinates":[[-74.9240024660027,38.9344564018615],[-74.9233114026859,38.9351202227395]]}},{"type":"Feature","id":231855,"properties":{"OBJECTID":231855,"PRIMENAME":"3rd Avenue","ELEVTYP_F":0,"ELEVTYP_T":0},"geometry":{"type":"LineString","coordinates":[[-74.9362394822075,38.9386290299741],[-74.936329115583,38.938654231001],[-74.9366834302758,38.9387608734213],[-74.9373469058515,38.9389492259912],[-74.9377075495615,38.9390382683184],[-74.9379071530446,38.9390852143883],[-74.9381132577378,38.939137189592],[-74.9383740446628,38.9391964813388],[-74.9387153074299,38.9392780422418],[-74.9395846983735,38.9394857081315],[-74.939671627624,38.939505452094],[-74.9397069968571,38.939505318863],[-74.9397432716547,38.9394980986746]]}},{"type":"Feature","id":234422,"properties":{"OBJECTID":234422,"PRIMENAME":"State Street","ELEVTYP_F":0,"ELEVTYP_T":0},"geometry":{"type":"LineString","coordinates":[[-74.939711244283,38.9435572781151],[-74.939318627893,38.9440173689013],[-74.9390041316275,38.9443913288927]]}},{"type":"Feature","id":234868,"properties":{"OBJECTID":234868,"PRIMENAME":"Broadway","ELEVTYP_F":0,"ELEVTYP_T":0},"geometry":{"type":"LineString","coordinates":[[-74.9302861340497,38.9377079808668],[-74.9302597787253,38.9379079206604],[-74.9302110852205,38.9382688516179]]}},{"type":"Feature","id":236451,"properties":{"OBJECTID":236451,"PRIMENAME":"Broadway","ELEVTYP_F":0,"ELEVTYP_T":0},"geometry":{"type":"LineString","coordinates":[[-74.9303745513737,38.9370381050196],[-74.9303520270244,38.9372088155215]]}},{"type":"Feature","id":238342,"properties":{"OBJECTID":238342,"PRIMENAME":"State Street","ELEVTYP_F":0,"ELEVTYP_T":0},"geometry":{"type":"LineString","coordinates":[[-74.9408113106508,38.9422825120311],[-74.940616336544,38.9425139273665],[-74.9403559602366,38.9428074806136],[-74.9400004595729,38.9432183931151],[-74.939711244283,38.9435572781151]]}},{"type":"Feature","id":238496,"properties":{"OBJECTID":238496,"PRIMENAME":"Seashore Road","ELEVTYP_F":0,"ELEVTYP_T":0},"geometry":{"type":"LineString","coordinates":[[-74.9261626995067,38.9493870291287],[-74.9261186607289,38.9496685832658],[-74.9261186318937,38.9496687770577],[-74.9261184685586,38.94966982176],[-74.9260695923713,38.9499814888238]]}},{"type":"Feature","id":241283,"properties":{"OBJECTID":241283,"PRIMENAME":"Goldbeaten Alley","ELEVTYP_F":0,"ELEVTYP_T":0},"geometry":{"type":"LineString","coordinates":[[-74.9343826042123,38.9376230531169],[-74.9343835837857,38.9376232864003],[-74.9364306410503,38.9381108685571],[-74.9364404689771,38.9381131623606]]}},{"type":"Feature","id":242512,"properties":{"OBJECTID":242512,"PRIMENAME":"McCullough Alley","ELEVTYP_F":0,"ELEVTYP_T":0},"geometry":{"type":"LineString","coordinates":[[-74.940144408295,38.9384926471716],[-74.9403346403388,38.9379898706534],[-74.9381136396075,38.9374508685614],[-74.9380526406943,38.9374158680852],[-74.9368300213828,38.9371233520921]]}},{"type":"Feature","id":245981,"properties":{"OBJECTID":245981,"PRIMENAME":"Park Boulevard","ELEVTYP_F":0,"ELEVTYP_T":0},"geometry":{"type":"LineString","coordinates":[[-74.9276943384165,38.9374551115414],[-74.9278168028274,38.9369768836953],[-74.9278340932144,38.9369054552064]]}},{"type":"Feature","id":248457,"properties":{"OBJECTID":248457,"PRIMENAME":"Broadway","ELEVTYP_F":0,"ELEVTYP_T":0},"geometry":{"type":"LineString","coordinates":[[-74.9302024910524,38.9398257012433],[-74.9302224969678,38.9400701180698],[-74.9302869165148,38.9408682932049]]}},{"type":"Feature","id":248862,"properties":{"OBJECTID":248862,"PRIMENAME":"Unnamed Segment","ELEVTYP_F":0,"ELEVTYP_T":0},"geometry":{"type":"LineString","coordinates":[[-74.9313881379773,38.9454223901501],[-74.9310393912475,38.9452327989222]]}},{"type":"Feature","id":249043,"properties":{"OBJECTID":249043,"PRIMENAME":"Atlantic Avenue","ELEVTYP_F":0,"ELEVTYP_T":0},"geometry":{"type":"LineString","coordinates":[[-74.9347784019426,38.936631327286],[-74.9348840459963,38.9363666689773],[-74.9349726579893,38.9361330783704]]}},{"type":"Feature","id":249292,"properties":{"OBJECTID":249292,"PRIMENAME":"Pond Creek Lane","ELEVTYP_F":0,"ELEVTYP_T":0},"geometry":{"type":"LineString","coordinates":[[-74.9514549772894,38.9409489181045],[-74.9515336108832,38.9412231167536],[-74.9516072688355,38.9414944247809],[-74.9516164924837,38.9415295085576],[-74.9516162838337,38.9415409864315],[-74.9516150126883,38.9415511783724],[-74.9516090339701,38.9415621029159],[-74.9516017467019,38.9415716866242],[-74.9515854501999,38.9415799872168],[-74.9515658533497,38.9415835502947],[-74.9514700425959,38.9416003140226],[-74.951261900295,38.9416402724539],[-74.9510718475628,38.9416767598304]]}},{"type":"Feature","id":250233,"properties":{"OBJECTID":250233,"PRIMENAME":"Morrison Avenue","ELEVTYP_F":0,"ELEVTYP_T":0},"geometry":{"type":"LineString","coordinates":[[-74.9399492976563,38.9389985821604],[-74.9399323894745,38.9390424245339],[-74.9398243314996,38.9393463679519],[-74.9397965056421,38.9394246385223],[-74.9397775146589,38.9394749317351],[-74.9397455193834,38.9394976505824],[-74.9397432716547,38.9394980986746]]}},{"type":"Feature","id":250539,"properties":{"OBJECTID":250539,"PRIMENAME":"5th Avenue","ELEVTYP_F":0,"ELEVTYP_T":0},"geometry":{"type":"LineString","coordinates":[[-74.931355282375,38.9396328065688],[-74.9302956245908,38.9393771789832],[-74.9301628428868,38.9393504017733]]}},{"type":"Feature","id":251989,"properties":{"OBJECTID":251989,"PRIMENAME":"2nd Avenue","ELEVTYP_F":0,"ELEVTYP_T":0},"geometry":{"type":"LineString","coordinates":[[-74.9366335490548,38.9376215294041],[-74.9358775213187,38.9374339300455],[-74.935244112021,38.9372841186589],[-74.9345818126178,38.9371238117547]]}},{"type":"Feature","id":255258,"properties":{"OBJECTID":255258,"PRIMENAME":"McCullough Alley","ELEVTYP_F":0,"ELEVTYP_T":0},"geometry":{"type":"LineString","coordinates":[[-74.9368300213828,38.9371233520921],[-74.9347784019426,38.936631327286]]}},{"type":"Feature","id":255749,"properties":{"OBJECTID":255749,"PRIMENAME":"Bank Street","ELEVTYP_F":0,"ELEVTYP_T":0},"geometry":{"type":"LineString","coordinates":[[-74.9240024660027,38.9344564018615],[-74.9243425609729,38.93494431343],[-74.9250627877405,38.9359346772489],[-74.9251731166516,38.9360944411473],[-74.9252041655619,38.9361423804648],[-74.9252077197356,38.9361663946259],[-74.9252044684177,38.9361930956484],[-74.9251926356677,38.9362078688785]]}},{"type":"Feature","id":255807,"properties":{"OBJECTID":255807,"PRIMENAME":"5th Avenue","ELEVTYP_F":0,"ELEVTYP_T":0},"geometry":{"type":"LineString","coordinates":[[-74.9338409141579,38.9404904884868],[-74.9336690694922,38.9404010230253],[-74.9333056039547,38.9402117948444],[-74.9332681087701,38.9401922743563],[-74.9330857357734,38.940099701272]]}},{"type":"Feature","id":255947,"properties":{"OBJECTID":255947,"PRIMENAME":"Bayshore Road","ELEVTYP_F":0,"ELEVTYP_T":0},"geometry":{"type":"LineString","coordinates":[[-74.9406390091331,38.9440352648186],[-74.9403278008106,38.9443939759567],[-74.940217751301,38.9445257530046],[-74.9401304979818,38.9446365204183],[-74.9400433703531,38.9447622516172],[-74.9399979841986,38.9448430135067],[-74.9399641183958,38.9449048407427]]}},{"type":"Feature","id":256089,"properties":{"OBJECTID":256089,"PRIMENAME":"Seashore Road","ELEVTYP_F":0,"ELEVTYP_T":0},"geometry":{"type":"LineString","coordinates":[[-74.9277343541862,38.9456429394916],[-74.9275923267651,38.9457937409814],[-74.9273798514191,38.9460237704076],[-74.9270298238046,38.9463950823966],[-74.9269257023728,38.9465231451854],[-74.9268258907355,38.946654515423],[-74.9267469599582,38.946779245503],[-74.9266555782168,38.9469269499455],[-74.926605889618,38.9470319404039],[-74.9265563772805,38.9471663660713],[-74.9265110455073,38.9472942415391],[-74.926470136723,38.9474679568286],[-74.9264253424216,38.947697343743],[-74.926380852451,38.9479660235939],[-74.926320383516,38.9483788637665],[-74.9262329614531,38.9489378069167],[-74.9261626995067,38.9493870291287]]}},{"type":"Feature","id":256164,"properties":{"OBJECTID":256164,"PRIMENAME":"Unnamed Segment","ELEVTYP_F":0,"ELEVTYP_T":0},"geometry":{"type":"LineString","coordinates":[[-74.9317583926709,38.9456236706157],[-74.9313881379773,38.9454223901501]]}},{"type":"Feature","id":256498,"properties":{"OBJECTID":256498,"PRIMENAME":"Unnamed Segment","ELEVTYP_F":0,"ELEVTYP_T":0},"geometry":{"type":"LineString","coordinates":[[-74.9321161491927,38.9458181549711],[-74.9317583926709,38.9456236706157]]}},{"type":"Feature","id":257294,"properties":{"OBJECTID":257294,"PRIMENAME":"Park Boulevard","ELEVTYP_F":0,"ELEVTYP_T":0},"geometry":{"type":"LineString","coordinates":[[-74.9278340932144,38.9369054552064],[-74.9280563794556,38.935984559175],[-74.9280748770645,38.9359035427559]]}},{"type":"Feature","id":257310,"properties":{"OBJECTID":257310,"PRIMENAME":"Broadway","ELEVTYP_F":0,"ELEVTYP_T":0},"geometry":{"type":"LineString","coordinates":[[-74.9294778227325,38.9430016438772],[-74.9293688313078,38.9431951614379],[-74.929321782589,38.9432794477331]]}},{"type":"Feature","id":257433,"properties":{"OBJECTID":257433,"PRIMENAME":"Elmira Street","ELEVTYP_F":0,"ELEVTYP_T":0},"geometry":{"type":"LineString","coordinates":[[-74.9233114026859,38.9351202227395],[-74.923369971443,38.9351907430659],[-74.9236939952069,38.93564870226],[-74.9243728754213,38.9365858419352]]}},{"type":"Feature","id":257916,"properties":{"OBJECTID":257916,"PRIMENAME":"South Broadway","ELEVTYP_F":0,"ELEVTYP_T":0},"geometry":{"type":"LineString","coordinates":[[-74.9307854643432,38.9344154483093],[-74.9307223251576,38.9346249156301],[-74.930672970239,38.9347943253082],[-74.930631979881,38.9349517315383],[-74.9306170876597,38.9350993219881]]}},{"type":"Feature","id":259179,"properties":{"OBJECTID":259179,"PRIMENAME":"5th Avenue","ELEVTYP_F":0,"ELEVTYP_T":0},"geometry":{"type":"LineString","coordinates":[[-74.9406390091331,38.9440352648186],[-74.9403030692071,38.9438746095325],[-74.939711244283,38.9435572781151]]}},{"type":"Feature","id":261832,"properties":{"OBJECTID":261832,"PRIMENAME":"Franklin Street","ELEVTYP_F":0,"ELEVTYP_T":0},"geometry":{"type":"LineString","coordinates":[[-74.9211386998976,38.9357193192898],[-74.9208192998891,38.9355712339148],[-74.9202665066131,38.935305916513],[-74.9202257846923,38.9352864304502]]}},{"type":"Feature","id":262103,"properties":{"OBJECTID":262103,"PRIMENAME":"Fow Avenue","ELEVTYP_F":0,"ELEVTYP_T":0},"geometry":{"type":"LineString","coordinates":[[-74.9319259016394,38.9333597075379],[-74.9317119366051,38.9340662120683],[-74.9315509348177,38.934584786189]]}},{"type":"Feature","id":262639,"properties":{"OBJECTID":262639,"PRIMENAME":"West Drive","ELEVTYP_F":0,"ELEVTYP_T":0},"geometry":{"type":"LineString","coordinates":[[-74.9457226047492,38.940943489984],[-74.9457215172007,38.9408147410522],[-74.9457176146222,38.9404012634139],[-74.9457126377248,38.9398736605501],[-74.9457126751286,38.9398291502686]]}},{"type":"Feature","id":265975,"properties":{"OBJECTID":265975,"PRIMENAME":"Canning House Lane","ELEVTYP_F":0,"ELEVTYP_T":0},"geometry":{"type":"LineString","coordinates":[[-74.9277343541862,38.9456429394916],[-74.9267764541097,38.9451242951857],[-74.9264337922158,38.9449465999178],[-74.9262777044662,38.9448695169843],[-74.9261607072615,38.9448260655955],[-74.926052461732,38.9447994419037],[-74.9259486409109,38.9447896887501],[-74.9258448606885,38.9447867170963],[-74.9257886391392,38.9447869222011]]}},{"type":"Feature","id":268835,"properties":{"OBJECTID":268835,"PRIMENAME":"Congress Street West","ELEVTYP_F":0,"ELEVTYP_T":0},"geometry":{"type":"LineString","coordinates":[[-74.9308822170001,38.9344510485454],[-74.9309481352096,38.9344679802966],[-74.9310998781097,38.9344981189439],[-74.9315509348177,38.934584786189]]}},{"type":"Feature","id":268912,"properties":{"OBJECTID":268912,"PRIMENAME":"Unnamed Segment","ELEVTYP_F":0,"ELEVTYP_T":0},"geometry":{"type":"LineString","coordinates":[[-74.9310393912475,38.9452327989222],[-74.9309382698381,38.9453143387706],[-74.9307329407226,38.9455422831204],[-74.9315041514021,38.9458383634758]]}},{"type":"Feature","id":269384,"properties":{"OBJECTID":269384,"PRIMENAME":"4th Avenue","ELEVTYP_F":0,"ELEVTYP_T":0},"geometry":{"type":"LineString","coordinates":[[-74.9372067224097,38.9401048503053],[-74.9370587448106,38.9400145437058],[-74.9369209370134,38.939937022724],[-74.9368848253222,38.9399210926883],[-74.9367748421247,38.9398725753732],[-74.936612096468,38.939804921768],[-74.9364244891496,38.939753590053],[-74.9361743808741,38.9396927703221],[-74.9358474880683,38.9396151301806]]}},{"type":"Feature","id":269480,"properties":{"OBJECTID":269480,"PRIMENAME":"6th Avenue","ELEVTYP_F":0,"ELEVTYP_T":0},"geometry":{"type":"LineString","coordinates":[[-74.9390041316275,38.9443913288927],[-74.9393971265002,38.9445957066899],[-74.9399641183958,38.9449048407427]]}},{"type":"Feature","id":269556,"properties":{"OBJECTID":269556,"PRIMENAME":"Broadway","ELEVTYP_F":0,"ELEVTYP_T":0},"geometry":{"type":"LineString","coordinates":[[-74.929321782589,38.9432794477331],[-74.9291489547152,38.9435890660204],[-74.9286840526902,38.9444001969483]]}},{"type":"Feature","id":269670,"properties":{"OBJECTID":269670,"PRIMENAME":"Atlantic Avenue","ELEVTYP_F":0,"ELEVTYP_T":0},"geometry":{"type":"LineString","coordinates":[[-74.9341866748969,38.9381270529105],[-74.9343826042123,38.9376230531169]]}},{"type":"Feature","id":269980,"properties":{"OBJECTID":269980,"PRIMENAME":"Unnamed Segment","ELEVTYP_F":0,"ELEVTYP_T":0},"geometry":{"type":"LineString","coordinates":[[-74.932219855438,38.9444552288592],[-74.9313881379773,38.9454223901501]]}},{"type":"Feature","id":271062,"properties":{"OBJECTID":271062,"PRIMENAME":"West Perry Street","ELEVTYP_F":0,"ELEVTYP_T":0},"geometry":{"type":"LineString","coordinates":[[-74.9306170876597,38.9350993219881],[-74.92924372936,38.9347685340244],[-74.9283808448285,38.9345643091133]]}},{"type":"Feature","id":274343,"properties":{"OBJECTID":274343,"PRIMENAME":"Stevens Street","ELEVTYP_F":0,"ELEVTYP_T":0},"geometry":{"type":"LineString","coordinates":[[-74.9417406885166,38.9427615001886],[-74.9418382469203,38.9427595381994],[-74.941944347468,38.9427458739327],[-74.9420630938881,38.9427189270144],[-74.9424277292858,38.9426146860769],[-74.9429661178698,38.9424467941895],[-74.9433477480021,38.942339190504],[-74.9438904553113,38.9421878638445],[-74.9445773040523,38.9419895522654],[-74.944950482848,38.9418918886902],[-74.9451201454862,38.9418548034723],[-74.9453451048967,38.9418273931765],[-74.945729725209,38.9417774880581]]}},{"type":"Feature","id":275012,"properties":{"OBJECTID":275012,"PRIMENAME":"Westwood Drive","ELEVTYP_F":0,"ELEVTYP_T":0},"geometry":{"type":"LineString","coordinates":[[-74.934983041751,38.9487896915056],[-74.934983164353,38.9487895541168],[-74.9356379530055,38.9480769424542],[-74.9358208712653,38.9478778677205]]}},{"type":"Feature","id":277741,"properties":{"OBJECTID":277741,"PRIMENAME":"South Bayshore Drive","ELEVTYP_F":0,"ELEVTYP_T":0},"geometry":{"type":"LineString","coordinates":[[-74.9424650640424,38.937923939053],[-74.942475177459,38.9380747846353],[-74.9424878639472,38.9382717792046],[-74.9425012171274,38.9385762161242],[-74.9425100139018,38.9387583160324],[-74.9425151816738,38.938973242054],[-74.9425145694498,38.9390614412787]]}},{"type":"Feature","id":278708,"properties":{"OBJECTID":278708,"PRIMENAME":"Sunset Boulevard","ELEVTYP_F":0,"ELEVTYP_T":0},"geometry":{"type":"LineString","coordinates":[[-74.9349726579893,38.9361330783704],[-74.9344009039055,38.9359965141009],[-74.9335142527882,38.9357854411487],[-74.9329036550915,38.9356371249969]]}},{"type":"Feature","id":279629,"properties":{"OBJECTID":279629,"PRIMENAME":"Myrtle Avenue","ELEVTYP_F":0,"ELEVTYP_T":0},"geometry":{"type":"LineString","coordinates":[[-74.9256811408597,38.9338773684104],[-74.9257803862565,38.9340067209888],[-74.9257944966018,38.9340303461973]]}},{"type":"Feature","id":281080,"properties":{"OBJECTID":281080,"PRIMENAME":"Sunset Boulevard","ELEVTYP_F":0,"ELEVTYP_T":0},"geometry":{"type":"LineString","coordinates":[[-74.9329036550915,38.9356371249969],[-74.9325346639462,38.9355474950769],[-74.9321576426314,38.9354554496564]]}},{"type":"Feature","id":281753,"properties":{"OBJECTID":281753,"PRIMENAME":"Park Boulevard","ELEVTYP_F":0,"ELEVTYP_T":0},"geometry":{"type":"LineString","coordinates":[[-74.9280748770645,38.9359035427559],[-74.9283522086296,38.9346897072429]]}},{"type":"Feature","id":281985,"properties":{"OBJECTID":281985,"PRIMENAME":"Pacific Avenue","ELEVTYP_F":0,"ELEVTYP_T":0},"geometry":{"type":"LineString","coordinates":[[-74.9317471590701,38.9386343645333],[-74.9315590206981,38.939115090422],[-74.9315501221578,38.9391376675815]]}},{"type":"Feature","id":282370,"properties":{"OBJECTID":282370,"PRIMENAME":"2nd Avenue","ELEVTYP_F":0,"ELEVTYP_T":0},"geometry":{"type":"LineString","coordinates":[[-74.9345818126178,38.9371238117547],[-74.933920256356,38.9369636352518],[-74.9326835187622,38.9366756280805],[-74.9325312709355,38.9366384368708]]}},{"type":"Feature","id":283029,"properties":{"OBJECTID":283029,"PRIMENAME":"5th Avenue","ELEVTYP_F":0,"ELEVTYP_T":0},"geometry":{"type":"LineString","coordinates":[[-74.9372527494812,38.9422692626889],[-74.9368031912873,38.942034692117],[-74.9367049626074,38.941984230839],[-74.9361859434811,38.9417176026559]]}},{"type":"Feature","id":285385,"properties":{"OBJECTID":285385,"PRIMENAME":"Pacific Avenue","ELEVTYP_F":0,"ELEVTYP_T":0},"geometry":{"type":"LineString","coordinates":[[-74.9325312709355,38.9366384368708],[-74.9324361857372,38.9368785845125],[-74.9323352266595,38.93713548658],[-74.9323295129672,38.9371500234577]]}},{"type":"Feature","id":291184,"properties":{"OBJECTID":291184,"PRIMENAME":"Sunset Boulevard","ELEVTYP_F":0,"ELEVTYP_T":0},"geometry":{"type":"LineString","coordinates":[[-74.9457138579816,38.9387038133378],[-74.9444331437085,38.9383955580971],[-74.9424650640424,38.937923939053]]}},{"type":"Feature","id":291895,"properties":{"OBJECTID":291895,"PRIMENAME":"Pacific Avenue","ELEVTYP_F":0,"ELEVTYP_T":0},"geometry":{"type":"LineString","coordinates":[[-74.9321357278223,38.9376430726728],[-74.9319934928861,38.9380049542166],[-74.9319416553833,38.9381373072369],[-74.9319379943962,38.938146653794]]}},{"type":"Feature","id":293022,"properties":{"OBJECTID":293022,"PRIMENAME":"Goldbeaten Alley","ELEVTYP_F":0,"ELEVTYP_T":0},"geometry":{"type":"LineString","coordinates":[[-74.9323295129672,38.9371500234577],[-74.9343826042123,38.9376230531169]]}},{"type":"Feature","id":293760,"properties":{"OBJECTID":293760,"PRIMENAME":"Broadway","ELEVTYP_F":0,"ELEVTYP_T":0},"geometry":{"type":"LineString","coordinates":[[-74.9302110852205,38.9382688516179],[-74.9301634021957,38.9386224187049],[-74.9301504663579,38.9387567382929]]}},{"type":"Feature","id":294074,"properties":{"OBJECTID":294074,"PRIMENAME":"Columbia Avenue","ELEVTYP_F":0,"ELEVTYP_T":0},"geometry":{"type":"LineString","coordinates":[[-74.9356452311761,38.9401197306226],[-74.9357224407555,38.9399274716909],[-74.9358474880683,38.9396151301806]]}},{"type":"Feature","id":294208,"properties":{"OBJECTID":294208,"PRIMENAME":"Grand Avenue","ELEVTYP_F":0,"ELEVTYP_T":0},"geometry":{"type":"LineString","coordinates":[[-74.9285439119651,38.9430124356383],[-74.9286869270574,38.9427173353097],[-74.9287342600599,38.9426133408056]]}},{"type":"Feature","id":295241,"properties":{"OBJECTID":295241,"PRIMENAME":"South Broadway","ELEVTYP_F":0,"ELEVTYP_T":0},"geometry":{"type":"LineString","coordinates":[[-74.9309955538782,38.9337289771481],[-74.9309519438976,38.9338716486435],[-74.9308045935312,38.9343520861698],[-74.9307854643432,38.9344154483093]]}},{"type":"Feature","id":297566,"properties":{"OBJECTID":297566,"PRIMENAME":"6th Avenue","ELEVTYP_F":0,"ELEVTYP_T":0},"geometry":{"type":"LineString","coordinates":[[-74.9311018868635,38.9402766571788],[-74.9315341396809,38.940503185276],[-74.9320149595809,38.9407545473524]]}},{"type":"Feature","id":298669,"properties":{"OBJECTID":298669,"PRIMENAME":"1st Avenue","ELEVTYP_F":0,"ELEVTYP_T":0},"geometry":{"type":"LineString","coordinates":[[-74.9324331201,38.9318813262816],[-74.9324501159082,38.9321501930154],[-74.9324867796271,38.9329195015121]]}},{"type":"Feature","id":299198,"properties":{"OBJECTID":299198,"PRIMENAME":"West Perry Street","ELEVTYP_F":0,"ELEVTYP_T":0},"geometry":{"type":"LineString","coordinates":[[-74.9283808448285,38.9345643091133],[-74.9276710194969,38.9343864540597],[-74.9265316903653,38.9341144446859],[-74.9259761681717,38.9339824750625],[-74.925822634545,38.9339403096568],[-74.9257312012757,38.9339064569284],[-74.9256811408597,38.9338773684104]]}},{"type":"Feature","id":299310,"properties":{"OBJECTID":299310,"PRIMENAME":"Stimpson Lane","ELEVTYP_F":0,"ELEVTYP_T":0},"geometry":{"type":"LineString","coordinates":[[-74.9349473919144,38.9488284824058],[-74.9347713076309,38.9487748620557]]}},{"type":"Feature","id":300058,"properties":{"OBJECTID":300058,"PRIMENAME":"Saint Johns Street","ELEVTYP_F":0,"ELEVTYP_T":0},"geometry":{"type":"LineString","coordinates":[[-74.9216029767007,38.9367505946523],[-74.9215671049243,38.9367550483865],[-74.9215233052253,38.9367503193416],[-74.9214762764614,38.9367285493685],[-74.9213164106224,38.9366388430883],[-74.9206381720123,38.9362380326005]]}},{"type":"Feature","id":300177,"properties":{"OBJECTID":300177,"PRIMENAME":"Central Avenue","ELEVTYP_F":0,"ELEVTYP_T":0},"geometry":{"type":"LineString","coordinates":[[-74.9287342600599,38.9426133408056],[-74.9280231639541,38.9422259562109],[-74.9279909592384,38.9422087208583]]}},{"type":"Feature","id":303709,"properties":{"OBJECTID":303709,"PRIMENAME":"Emerald Avenue","ELEVTYP_F":0,"ELEVTYP_T":0},"geometry":{"type":"LineString","coordinates":[[-74.9302861340497,38.9377079808668],[-74.9302392980691,38.9376896460377],[-74.9301767413183,38.9376703538465],[-74.930080928474,38.9376577190678],[-74.9298852149019,38.9376421838135],[-74.9276943384165,38.9374551115414]]}},{"type":"Feature","id":305785,"properties":{"OBJECTID":305785,"PRIMENAME":"West Grant Street","ELEVTYP_F":0,"ELEVTYP_T":0},"geometry":{"type":"LineString","coordinates":[[-74.9312651962925,38.9331984289065],[-74.9311640408705,38.933174734928]]}},{"type":"Feature","id":305825,"properties":{"OBJECTID":305825,"PRIMENAME":"Stimpson Lane","ELEVTYP_F":0,"ELEVTYP_T":0},"geometry":{"type":"LineString","coordinates":[[-74.9347713076309,38.9487748620557],[-74.9344451571003,38.9486755504483],[-74.9338292911641,38.9484890363694],[-74.9337183802557,38.9484478221522],[-74.9335910219159,38.9483907145567],[-74.9333565792523,38.9482507777608],[-74.9328465023016,38.9479390395527],[-74.9325675438826,38.947769748385]]}},{"type":"Feature","id":307981,"properties":{"OBJECTID":307981,"PRIMENAME":"Broadway","ELEVTYP_F":0,"ELEVTYP_T":0},"geometry":{"type":"LineString","coordinates":[[-74.9301628428868,38.9393504017733],[-74.9301862836503,38.9396280318368],[-74.9302024910524,38.9398257012433]]}},{"type":"Feature","id":308293,"properties":{"OBJECTID":308293,"PRIMENAME":"Jackson Street","ELEVTYP_F":0,"ELEVTYP_T":0},"geometry":{"type":"LineString","coordinates":[[-74.9236396640974,38.932774452341],[-74.923600158715,38.9327170156536],[-74.9234382320465,38.9324924422162],[-74.9234029801314,38.9324448023138]]}},{"type":"Feature","id":313408,"properties":{"OBJECTID":313408,"PRIMENAME":"Brown Street","ELEVTYP_F":0,"ELEVTYP_T":0},"geometry":{"type":"LineString","coordinates":[[-74.9331518962328,38.9413463209812],[-74.9338409141579,38.9404904884868]]}},{"type":"Feature","id":313596,"properties":{"OBJECTID":313596,"PRIMENAME":"Bank Street","ELEVTYP_F":0,"ELEVTYP_T":0},"geometry":{"type":"LineString","coordinates":[[-74.9238629697922,38.93425632336],[-74.9240024660027,38.9344564018615]]}},{"type":"Feature","id":314785,"properties":{"OBJECTID":314785,"PRIMENAME":"Lafayette Street","ELEVTYP_F":0,"ELEVTYP_T":0},"geometry":{"type":"LineString","coordinates":[[-74.9223579973821,38.9344646148093],[-74.9220897191862,38.9347399498026],[-74.9214690842623,38.9353768996885],[-74.9211386998976,38.9357193192898]]}},{"type":"Feature","id":314866,"properties":{"OBJECTID":314866,"PRIMENAME":"East Lyle Lane","ELEVTYP_F":0,"ELEVTYP_T":0},"geometry":{"type":"LineString","coordinates":[[-74.9245393480726,38.9323345371251],[-74.9244115478952,38.9324037031531],[-74.9236396640974,38.932774452341]]}},{"type":"Feature","id":316620,"properties":{"OBJECTID":316620,"PRIMENAME":"Farmdale Road","ELEVTYP_F":0,"ELEVTYP_T":0},"geometry":{"type":"LineString","coordinates":[[-74.9296640666479,38.9447196982124],[-74.9296959039536,38.9447281752989],[-74.9297937687802,38.9447646100614],[-74.9298883556541,38.9448116276076],[-74.9302398968041,38.9450259912917],[-74.9302703965005,38.9450574290863],[-74.9302840859055,38.9450942007273],[-74.9302910907468,38.9451362139396],[-74.9302813013541,38.9451862239138],[-74.9302412003032,38.9452416463328],[-74.9301709049964,38.9453102768495],[-74.9301340358007,38.9453419629449],[-74.930083639065,38.9453579372773],[-74.9300196625132,38.9453608089374],[-74.9299084539812,38.9453507018562],[-74.9296084863323,38.9453097123315],[-74.9294971797084,38.9452890614526],[-74.9294533285044,38.9452708252642],[-74.9294160781791,38.9452393850664],[-74.9293888908725,38.9451974460497],[-74.9293886053114,38.9451501082539],[-74.9294018182219,38.9451079656566],[-74.9294618809631,38.9450157038259],[-74.9296640666479,38.9447196982124]]}},{"type":"Feature","id":317512,"properties":{"OBJECTID":317512,"PRIMENAME":"Columbia Avenue","ELEVTYP_F":0,"ELEVTYP_T":0},"geometry":{"type":"LineString","coordinates":[[-74.9364404689771,38.9381131623606],[-74.9365064244636,38.9379438747652],[-74.9366335490548,38.9376215294041]]}},{"type":"Feature","id":319563,"properties":{"OBJECTID":319563,"PRIMENAME":"1st Avenue","ELEVTYP_F":0,"ELEVTYP_T":0},"geometry":{"type":"LineString","coordinates":[[-74.9323746531879,38.9347409154516],[-74.9324389060011,38.9345304269435],[-74.9326673730045,38.9337930044802],[-74.932737708479,38.9335943000381]]}},{"type":"Feature","id":319712,"properties":{"OBJECTID":319712,"PRIMENAME":"Grant Street","ELEVTYP_F":0,"ELEVTYP_T":0},"geometry":{"type":"LineString","coordinates":[[-74.931197372904,38.9330651623503],[-74.9291455339672,38.9325745972021],[-74.9289212517804,38.9325180054368],[-74.9288907781707,38.9325075186628]]}},{"type":"Feature","id":321024,"properties":{"OBJECTID":321024,"PRIMENAME":"6th Avenue","ELEVTYP_F":0,"ELEVTYP_T":0},"geometry":{"type":"LineString","coordinates":[[-74.9302024910524,38.9398257012433],[-74.9302648685501,38.9398562450292],[-74.9307950621369,38.9401158668097],[-74.9311018868635,38.9402766571788]]}},{"type":"Feature","id":321159,"properties":{"OBJECTID":321159,"PRIMENAME":"Bough Hall Alley","ELEVTYP_F":0,"ELEVTYP_T":0},"geometry":{"type":"LineString","coordinates":[[-74.933991128351,38.9386299572586],[-74.9339812849954,38.9386275912369],[-74.9319379943962,38.938146653794]]}},{"type":"Feature","id":321942,"properties":{"OBJECTID":321942,"PRIMENAME":"West Grant Street","ELEVTYP_F":0,"ELEVTYP_T":0},"geometry":{"type":"LineString","coordinates":[[-74.9319259016394,38.9333597075379],[-74.9318478500949,38.9333356953372],[-74.9317129366032,38.9333032990898],[-74.9312651962925,38.9331984289065]]}},{"type":"Feature","id":323196,"properties":{"OBJECTID":323196,"PRIMENAME":"Decatur Street","ELEVTYP_F":0,"ELEVTYP_T":0},"geometry":{"type":"LineString","coordinates":[[-74.9225391162326,38.9328363771357],[-74.9226976477045,38.9330497077263],[-74.9227994690336,38.9331934413481]]}},{"type":"Feature","id":323666,"properties":{"OBJECTID":323666,"PRIMENAME":"South Bayshore Drive","ELEVTYP_F":0,"ELEVTYP_T":0},"geometry":{"type":"LineString","coordinates":[[-74.9424466781791,38.9401645985481],[-74.9424279887652,38.9403199467884],[-74.942398681404,38.9405260244642],[-74.9423619292642,38.9407620328852],[-74.9423286217628,38.9409412987109],[-74.9423130075379,38.9410177903069],[-74.942280442354,38.9411773224668],[-74.9422321390732,38.9414103539768],[-74.9421836278517,38.9415986292781],[-74.9421160627259,38.9417988925184],[-74.9420597560275,38.9419663007303],[-74.9419995427295,38.9421217520585],[-74.9419318840472,38.9423071061523],[-74.9418565571925,38.942480545512],[-74.9418104734935,38.942607083912],[-74.9417768382756,38.9426885434517],[-74.9417413841622,38.942760206611],[-74.9417406885166,38.9427615001886]]}},{"type":"Feature","id":323943,"properties":{"OBJECTID":323943,"PRIMENAME":"6th Avenue","ELEVTYP_F":0,"ELEVTYP_T":0},"geometry":{"type":"LineString","coordinates":[[-74.9331518962328,38.9413463209812],[-74.9332753801749,38.9414101712229],[-74.9345948959444,38.9421009006385],[-74.9362819248083,38.9429787991599],[-74.9376515213182,38.9436790818422],[-74.9385034460354,38.9441309546075],[-74.9390041316275,38.9443913288927]]}},{"type":"Feature","id":327176,"properties":{"OBJECTID":327176,"PRIMENAME":"Sunset Boulevard","ELEVTYP_F":0,"ELEVTYP_T":0},"geometry":{"type":"LineString","coordinates":[[-74.9313367627331,38.9352642168139],[-74.9306796260866,38.9351136511298]]}},{"type":"Feature","id":328132,"properties":{"OBJECTID":328132,"PRIMENAME":"Atlantic Avenue","ELEVTYP_F":0,"ELEVTYP_T":0},"geometry":{"type":"LineString","coordinates":[[-74.9335725830561,38.9396236987893],[-74.9337898497764,38.9391207703534]]}},{"type":"Feature","id":330316,"properties":{"OBJECTID":330316,"PRIMENAME":"4th Avenue","ELEVTYP_F":0,"ELEVTYP_T":0},"geometry":{"type":"LineString","coordinates":[[-74.9384904413452,38.940861075683],[-74.9382994953959,38.9407477851517],[-74.9379544775412,38.9405451675495],[-74.9378650052534,38.9404926239996],[-74.9375057553613,38.9402826776229],[-74.937426215885,38.9402354449632]]}},{"type":"Feature","id":334000,"properties":{"OBJECTID":334000,"PRIMENAME":"2nd Avenue","ELEVTYP_F":0,"ELEVTYP_T":0},"geometry":{"type":"LineString","coordinates":[[-74.9457126751286,38.9398291502686],[-74.9448117824776,38.9396195637169],[-74.9438000980242,38.9393799394041],[-74.9425145694498,38.9390614412787]]}},{"type":"Feature","id":334684,"properties":{"OBJECTID":334684,"PRIMENAME":"2nd Avenue","ELEVTYP_F":0,"ELEVTYP_T":0},"geometry":{"type":"LineString","coordinates":[[-74.9325312709355,38.9366384368708],[-74.9310684851004,38.9362812577483],[-74.9304968042746,38.9361500558729]]}},{"type":"Feature","id":335864,"properties":{"OBJECTID":335864,"PRIMENAME":"Carpenter Lane","ELEVTYP_F":0,"ELEVTYP_T":0},"geometry":{"type":"LineString","coordinates":[[-74.9222711441937,38.9324757742315],[-74.921260119016,38.9329238717832]]}},{"type":"Feature","id":336243,"properties":{"OBJECTID":336243,"PRIMENAME":"4th Avenue","ELEVTYP_F":0,"ELEVTYP_T":0},"geometry":{"type":"LineString","coordinates":[[-74.9417406885166,38.9427615001886],[-74.9416959711,38.9427569191336],[-74.9416334170447,38.9427506209287],[-74.9415709625511,38.942737869391],[-74.9414832780328,38.9426991817477],[-74.9412242129682,38.9425343672438],[-74.9408113106508,38.9422825120311]]}},{"type":"Feature","id":336340,"properties":{"OBJECTID":336340,"PRIMENAME":"Atlantic Avenue","ELEVTYP_F":0,"ELEVTYP_T":0},"geometry":{"type":"LineString","coordinates":[[-74.9345818126178,38.9371238117547],[-74.9347784019426,38.936631327286]]}},{"type":"Feature","id":338126,"properties":{"OBJECTID":338126,"PRIMENAME":"Seagrove Avenue","ELEVTYP_F":0,"ELEVTYP_T":0},"geometry":{"type":"LineString","coordinates":[[-74.9519746865244,38.9402021901685],[-74.9519747135963,38.9402020936707],[-74.9519749384948,38.9401741064083],[-74.9519767365333,38.9399502092091],[-74.9519763917299,38.9398958971589],[-74.9519831805371,38.9398632504088],[-74.9519968788484,38.939833322751],[-74.9520210876146,38.9398087902329],[-74.9520626310267,38.939778754733],[-74.9521563831637,38.939753925807],[-74.9524970029777,38.9397036751633],[-74.9528479061547,38.939645310044],[-74.9536227532912,38.9395092097054],[-74.9545086651268,38.9393454610674],[-74.9564162030926,38.9390093115316],[-74.9572013906291,38.9388704011688],[-74.9583132981396,38.9386812994826],[-74.9597482281749,38.9384257293998],[-74.9609190627395,38.9382173696684],[-74.9611417761613,38.938175032939]]}},{"type":"Feature","id":338742,"properties":{"OBJECTID":338742,"PRIMENAME":"Pacific Avenue","ELEVTYP_F":0,"ELEVTYP_T":0},"geometry":{"type":"LineString","coordinates":[[-74.9319379943962,38.938146653794],[-74.9317471590701,38.9386343645333]]}},{"type":"Feature","id":342542,"properties":{"OBJECTID":342542,"PRIMENAME":"Broadway","ELEVTYP_F":0,"ELEVTYP_T":0},"geometry":{"type":"LineString","coordinates":[[-74.9279309236063,38.9454278689947],[-74.927895781369,38.9454670252627]]}},{"type":"Feature","id":343500,"properties":{"OBJECTID":343500,"PRIMENAME":"Congress Street West","ELEVTYP_F":0,"ELEVTYP_T":0},"geometry":{"type":"LineString","coordinates":[[-74.9315509348177,38.934584786189],[-74.9317827109096,38.9346293185273],[-74.9323746531879,38.9347409154516]]}},{"type":"Feature","id":401972,"properties":{"OBJECTID":401972,"PRIMENAME":"Park Boulevard","ELEVTYP_F":0,"ELEVTYP_T":0},"geometry":{"type":"LineString","coordinates":[[-74.9267701056114,38.9415024267851],[-74.9267490218974,38.9414634845184],[-74.9267404517636,38.9414179904208],[-74.9267401210433,38.94136281879],[-74.9267643613646,38.9412423325842],[-74.9268577815194,38.940855209934],[-74.9271139899076,38.9398530508948],[-74.9272681783379,38.939199412904]]}},{"type":"Feature","id":401980,"properties":{"OBJECTID":401980,"PRIMENAME":"Central Avenue","ELEVTYP_F":0,"ELEVTYP_T":0},"geometry":{"type":"LineString","coordinates":[[-74.9272536328613,38.9418140694084],[-74.9269917282082,38.9416738913036],[-74.9268330153306,38.9415801787034],[-74.926795320892,38.9415445655399],[-74.9267701056114,38.9415024267851]]}},{"type":"Feature","id":401983,"properties":{"OBJECTID":401983,"PRIMENAME":"Jackson Street","ELEVTYP_F":0,"ELEVTYP_T":0},"geometry":{"type":"LineString","coordinates":[[-74.9251035385502,38.9337621709727],[-74.9250295979752,38.9337550810107],[-74.9248361395074,38.9337443622162],[-74.9247229413122,38.9337334069566],[-74.9246023463332,38.9337081438407],[-74.9245245668953,38.9336882175047]]}},{"type":"Feature","id":402065,"properties":{"OBJECTID":402065,"PRIMENAME":"Claghorne Place","ELEVTYP_F":0,"ELEVTYP_T":0},"geometry":{"type":"LineString","coordinates":[[-74.9273328141789,38.9330860456473],[-74.9268254457078,38.9333794569786],[-74.9267741767484,38.9334010347017],[-74.926729747526,38.9334199244254],[-74.9266797822124,38.9334361704939],[-74.9266439302921,38.9334432211224],[-74.926606478809,38.9334472290398],[-74.9265733949158,38.9334469382461],[-74.9265502010241,38.9334427123364],[-74.9265415721986,38.9334399908066],[-74.9265311810929,38.9334367135722],[-74.9264932710396,38.9333993983954],[-74.9264519198476,38.9333564049782],[-74.9263830024589,38.9332847492448],[-74.9263686069444,38.933270139257],[-74.9263533550769,38.9332594863161],[-74.9263382689134,38.933252813715],[-74.9263347010313,38.9332517853395]]}},{"type":"Feature","id":402131,"properties":{"OBJECTID":402131,"PRIMENAME":"Perry Street","ELEVTYP_F":0,"ELEVTYP_T":0},"geometry":{"type":"LineString","coordinates":[[-74.9249525661577,38.9329000542046],[-74.9251380860796,38.93315386473],[-74.9254960044857,38.9336297085329],[-74.9255885725137,38.933753538961],[-74.9256811408597,38.9338773684104]]}},{"type":"Feature","id":402208,"properties":{"OBJECTID":402208,"PRIMENAME":"Broadway","ELEVTYP_F":0,"ELEVTYP_T":0},"geometry":{"type":"LineString","coordinates":[[-74.9286840526902,38.9444001969483],[-74.928505443526,38.9447117660289],[-74.9284586497282,38.9447747256576],[-74.9283931334396,38.9448628711055],[-74.9282974592955,38.9449975489462],[-74.9282275478793,38.9450842420101],[-74.9281517461024,38.9451782392607],[-74.9280048955791,38.9453454511591],[-74.9279309236063,38.9454278689947]]}},{"type":"Feature","id":402289,"properties":{"OBJECTID":402289,"PRIMENAME":"Cape Hart Lane","ELEVTYP_F":0,"ELEVTYP_T":0},"geometry":{"type":"LineString","coordinates":[[-74.9263347010313,38.9332517853395],[-74.9263108003824,38.9332448962872],[-74.9262834170012,38.9332396415155],[-74.92626690293,38.9332352812492],[-74.9262496970564,38.9332269146326],[-74.9262318252717,38.933213085764],[-74.9260807279804,38.9330673999596],[-74.9260078912973,38.9329971726725]]}},{"type":"Feature","id":402291,"properties":{"OBJECTID":402291,"PRIMENAME":"Landis Avenue","ELEVTYP_F":0,"ELEVTYP_T":0},"geometry":{"type":"LineString","coordinates":[[-74.9302869165148,38.9408682932049],[-74.9303141487049,38.9408771988049],[-74.9303522413011,38.9408853238431],[-74.9304035191494,38.9408937011413],[-74.930484368622,38.9408907670499],[-74.9306459919198,38.9408954706791],[-74.9307100438355,38.940905723168],[-74.9307640035085,38.9409213126809],[-74.9308416966557,38.9409604569817],[-74.9311762089807,38.9411406955879],[-74.9314257575953,38.9412820477713],[-74.9314668180243,38.9413053059872],[-74.9315309315268,38.9413313473308],[-74.9315713806185,38.9413338607522],[-74.9316083718212,38.9413284520899],[-74.9316385517013,38.9413073069964],[-74.9316685524551,38.941262521047]]}}]}
